{"type": "FeatureCollection", "features": [{"type": "Feature", "properties": {"code": "31030", "name": "의정부시", "name_eng": "Uijeongbu-si", "base_year": "2013"}, "geometry": {"type": "Polygon", "coordinates": [[[127.10645686970089, 37.776897580693586], [127.1083125681589, 37.776731491697724], [127.10898497283299, 37.77707300939873], [127.11011967370239, 37.77657752569973], [127.1109360190009, 37.776728833883126], [127.1116244849582, 37.777007247598405], [127.1122003759614, 37.77708358645971], [127.11280758322525, 37.7766257337493], [127.11385996145393, 37.77613930137578], [127.11563927905831, 37.774640726309705], [127.1158816551355, 37.77446112686176], [127.11594705705693, 37.774428682281794], [127.11752539248309, 37.77365984832523], [127.1176800129112, 37.7727104870072], [127.1178871837188, 37.77191003064613], [127.1177578674348, 37.77098347220172], [127.1173892633583, 37.770729844420316], [127.11752759033624, 37.770488113016675], [127.11754899412115, 37.77045092343533], [127.11814005179768, 37.76992885791317], [127.11857157711394, 37.769814113002454], [127.11929116250599, 37.76994039770352], [127.11985139484155, 37.76990182950143], [127.12049174670098, 37.770168694654366], [127.12103624161118, 37.77082845862486], [127.1222365754378, 37.77121977366697], [127.12326006266944, 37.770940248626594], [127.1236918740421, 37.77100259943639], [127.1245708100035, 37.770404742444526], [127.12514622473914, 37.770430333974545], [127.12543437738032, 37.77017548501757], [127.12588149182233, 37.77016234805958], [127.12613817602804, 37.770505609299775], [127.12644397406913, 37.7705176786694], [127.12676183350743, 37.770530016149266], [127.12821615159055, 37.769537593201825], [127.12867845035117, 37.76864871089958], [127.12989460572068, 37.768850989976855], [127.13018229998262, 37.7690660894534], [127.13078804017833, 37.76785885660914], [127.13072255369902, 37.766907744969245], [127.13094008361267, 37.766548773794604], [127.13119408108386, 37.764304009756266], [127.13119617815455, 37.76428598624052], [127.13121414748191, 37.76411363863567], [127.13100574563042, 37.76379624112738], [127.12946821829752, 37.76270536508521], [127.12862091745903, 37.762846781406104], [127.12754956783473, 37.76052458728498], [127.12781405751612, 37.76056823401302], [127.12802311505202, 37.76065671054418], [127.12821069572784, 37.76073394626452], [127.12878780271289, 37.76085976147695], [127.12894087852273, 37.76087705593529], [127.1291219347419, 37.76087094892873], [127.12935135928966, 37.76083775788836], [127.1294622899681, 37.760787517221196], [127.12960087812347, 37.760732741405945], [127.12980985962504, 37.76067141325641], [127.1299762879882, 37.76061548068648], [127.13016396087357, 37.760538406295176], [127.13051838139916, 37.76048874617818], [127.13076243190015, 37.76050537655444], [127.13138796543154, 37.760431766471875], [127.13151279497092, 37.760420930190264], [127.13165852141815, 37.760393176029744], [127.13185330517288, 37.76032735445552], [127.1319920093133, 37.76023878586508], [127.13216622872294, 37.76017749160859], [127.1323539173602, 37.76011139540577], [127.13245761326374, 37.76008368641915], [127.13259681447717, 37.7600773384999], [127.13274989742267, 37.76009913331717], [127.13296547424316, 37.76016084361608], [127.13363387026733, 37.7604625230314], [127.1348578092067, 37.760621942172875], [127.13493350626578, 37.76040672879254], [127.13505823700044, 37.76014133879146], [127.13509260280328, 37.75992053999621], [127.13523141017416, 37.75969342914793], [127.135543912717, 37.759511739033236], [127.13574732993227, 37.75941774310198], [127.13592593742045, 37.7593339117776], [127.13616260731182, 37.759389679202926], [127.13847980415402, 37.760214887077225], [127.13854918437573, 37.760236770627635], [127.13880644915893, 37.76030264597316], [127.13900838458346, 37.76036886625405], [127.13918209112279, 37.760417660756936], [127.1394535448934, 37.76048379985942], [127.13997544652956, 37.760572173842334], [127.14044813815734, 37.760709035046716], [127.14055924637144, 37.76075874530815], [127.1408725641805, 37.76082961911897], [127.14115113612145, 37.76090729082803], [127.14142931893954, 37.761061271025916], [127.14177735342194, 37.76129795333661], [127.14203440351871, 37.760961722949375], [127.14208955751049, 37.76086732788623], [127.14233955996936, 37.76065162219024], [127.14241579753718, 37.76045245355138], [127.14255419969841, 37.76030417753284], [127.14267897525158, 37.760171404517614], [127.14274856581444, 37.760021801952256], [127.14271335008642, 37.75968479015625], [127.14309474566952, 37.75918227642526], [127.14317754253754, 37.75907771098783], [127.14333024958287, 37.7589001324723], [127.14348997729118, 37.758590765005884], [127.14417008857181, 37.757950760531166], [127.14433656149924, 37.75783398589813], [127.14494111116392, 37.75756322163124], [127.14487828809024, 37.757353237126324], [127.14524450163393, 37.756160013681445], [127.14562518929583, 37.755491922050076], [127.14588163744344, 37.75513878877097], [127.14693387060123, 37.75411451943863], [127.14695599483217, 37.75409309215047], [127.14741581844606, 37.75364593981416], [127.14776193364422, 37.75308826365286], [127.14791483509124, 37.753022185368586], [127.14808900182399, 37.752949322716056], [127.14848405882368, 37.75266781628012], [127.14882403466048, 37.75206030443599], [127.1486008756605, 37.751834188362025], [127.14800199756957, 37.75125571237727], [127.14737172695114, 37.75039512623675], [127.14707911309486, 37.750008871947145], [127.14706470272877, 37.74989287762679], [127.14587328239989, 37.74858553379164], [127.14584572473329, 37.74854699041996], [127.14571931593792, 37.74800143681573], [127.14500323531715, 37.74785841370556], [127.14447372546451, 37.74745554319622], [127.14416018623045, 37.74714702336121], [127.14436155221115, 37.746744118799526], [127.14481810118245, 37.74580477362587], [127.14460130541784, 37.744994076515546], [127.14358582136737, 37.74486801764954], [127.1431967953814, 37.74476316944885], [127.1425987309928, 37.744753461268125], [127.14227188828066, 37.744715271383114], [127.14217469592826, 37.74469933605967], [127.14207696907069, 37.74468199337383], [127.14173651666862, 37.744666344686706], [127.1416533714064, 37.74467179266833], [127.14144456951072, 37.74470498346459], [127.14128489097817, 37.74474374787816], [127.14113876670977, 37.74472984022046], [127.14099264458837, 37.74471705870968], [127.14086720846802, 37.74467271554631], [127.14037333972917, 37.74453475394256], [127.1400474597082, 37.74472886246985], [127.13963039804466, 37.7449945978995], [127.13930425816939, 37.74524248694722], [127.1391170607753, 37.745359278659244], [127.13899892933524, 37.7454309371182], [127.1389710471073, 37.74550305446622], [127.13890498587786, 37.74564026145641], [127.1388327413582, 37.745789865173414], [127.1383401247132, 37.746535499861686], [127.13764487072885, 37.746519683387156], [127.13739521172104, 37.74651461847567], [127.13679712375863, 37.74649924924643], [127.13642842107343, 37.74645517748631], [127.13624766629809, 37.74641173682689], [127.13609473738853, 37.74636178804737], [127.13586518271983, 37.746295593747725], [127.13562852662021, 37.7462240569278], [127.13539212869837, 37.746098173896414], [127.13509302167898, 37.74590449932562], [127.13415371601033, 37.745740541677314], [127.13395920992049, 37.745739913375054], [127.1337506986482, 37.745740426631805], [127.13359761677839, 37.74570258282781], [127.13322889077935, 37.745641887698845], [127.13306319503243, 37.74558941484954], [127.13279123597312, 37.74550411375285], [127.13257372643709, 37.745428044361134], [127.13233865188836, 37.74534495429173], [127.13060037316637, 37.74504865443316], [127.13058613777591, 37.744915762829095], [127.13053698473793, 37.7447893854407], [127.13036339592966, 37.74447448225441], [127.13034549180244, 37.744373131839474], [127.1303205952022, 37.74422645416187], [127.13032752700607, 37.74413296120376], [127.13036138356841, 37.74402479682764], [127.13036931965195, 37.74400000896472], [127.13043835134312, 37.743829013566554], [127.13047315347791, 37.743652141939734], [127.13070876495964, 37.743226978303476], [127.13077072547274, 37.7431720024592], [127.13078008554149, 37.743150592013585], [127.13080587487363, 37.74309452905835], [127.13080551385347, 37.74288475028021], [127.130714366251, 37.742669438323816], [127.13026896665677, 37.742344692341895], [127.13009462490166, 37.741896600759674], [127.12924579135867, 37.741517658463536], [127.12841042037097, 37.74102155721289], [127.12835442239151, 37.740722575803936], [127.12782523642761, 37.74000650935672], [127.12751894290219, 37.73983563116845], [127.12726772606683, 37.73941549316418], [127.1272463457107, 37.73903453396608], [127.12676502810845, 37.738092300866406], [127.1266675942111, 37.737711139789916], [127.1258300006713, 37.735834701864384], [127.12571734351432, 37.734818867268], [127.12618223920256, 37.734217764999165], [127.1261746584292, 37.73402939375724], [127.12613243007206, 37.733686751125646], [127.1260905511007, 37.73355473236207], [127.12609050815719, 37.73342182511543], [127.12609699830794, 37.73327314237564], [127.12578251358474, 37.73220289100499], [127.12596960602482, 37.73181580034164], [127.12683760800427, 37.731434190236804], [127.12740739221985, 37.73113539301463], [127.12776112738611, 37.73075994981416], [127.12774621341522, 37.7303237929538], [127.1273981311814, 37.72973339911257], [127.12731379293915, 37.72954623517911], [127.12736240388857, 37.7293580861293], [127.1275288316576, 37.72913095403366], [127.12753005157145, 37.7290126876942], [127.12753442186325, 37.72844726346994], [127.1276529354289, 37.72755620790442], [127.12773345144457, 37.72694564955669], [127.12728763171457, 37.72630551820606], [127.12739877587136, 37.7262009333652], [127.12769718114446, 37.7258244221473], [127.12788299600184, 37.72469254066713], [127.12695745567278, 37.72410951376805], [127.12703350319553, 37.723794059972725], [127.12687348506144, 37.72360669361379], [127.12623291460058, 37.72319343745174], [127.1256563033645, 37.72318812604041], [127.12570446132929, 37.722940282188645], [127.12555766717931, 37.72249243525411], [127.12559902237142, 37.72231133385031], [127.12581348589661, 37.721554776357394], [127.12577207679531, 37.721488084160285], [127.12518030007412, 37.72109082152518], [127.12490876010557, 37.720660561164614], [127.12499165423783, 37.720517712325005], [127.12514421340472, 37.72037957813109], [127.1253391785655, 37.72026871333777], [127.12577614955815, 37.72009086084359], [127.1256855181071, 37.71994762907536], [127.12554617632598, 37.71971603057479], [127.12525429323803, 37.71952373048158], [127.12518520387434, 37.71943763748938], [127.12512179616495, 37.719357451827356], [127.12504799938202, 37.719210823088034], [127.1250170569852, 37.7191486250955], [127.12486453518825, 37.71930815949173], [127.1246146599191, 37.719331226037944], [127.12447556003964, 37.719353333115556], [127.12403099816498, 37.71933154561051], [127.12381514005936, 37.71923743659075], [127.12328056983971, 37.719343859227486], [127.1232594410101, 37.71932107250281], [127.1231827634519, 37.719034779899886], [127.12310590968126, 37.71896812289413], [127.12280722098492, 37.71883636420109], [127.12261251018074, 37.71877489519739], [127.12240372885415, 37.71867063937326], [127.12223683847556, 37.71860463619889], [127.12212281725355, 37.71857039832062], [127.12147185858119, 37.71837901457273], [127.12126157977895, 37.7183344540275], [127.12103410129053, 37.71828512341554], [127.12094347014951, 37.71824663719356], [127.1207141412463, 37.718147749033804], [127.12031054247858, 37.71802143888371], [127.12023422007526, 37.7178398931892], [127.12025485847514, 37.71755265695244], [127.12019185398893, 37.71738658507915], [127.11997585038122, 37.71719335155603], [127.11973244143675, 37.71692890402783], [127.11939845262549, 37.716769013215554], [127.11927932888453, 37.715962955651506], [127.11903547703326, 37.71563768489361], [127.11886160706278, 37.71552212497123], [127.1186242953697, 37.71506957087189], [127.11826890674874, 37.71413196232826], [127.11769887381887, 37.714209109672254], [127.11760555747712, 37.71414894148544], [127.11758089636382, 37.71413207042558], [127.11736491848245, 37.71406019476571], [127.11719146882665, 37.71386804103423], [127.11571954257344, 37.71490118323617], [127.11501750556275, 37.715006883861044], [127.11472612639635, 37.71500152892255], [127.1143299124523, 37.71493601338814], [127.11377993623844, 37.714445167548675], [127.1134873236123, 37.713727684257705], [127.11302132146668, 37.71332489183864], [127.11268009133632, 37.71280090019618], [127.11204432983163, 37.71095767641063], [127.11192635512846, 37.710874999766666], [127.11169707779044, 37.710787638833246], [127.11153003734742, 37.71072162053595], [127.11126572633826, 37.71055066047622], [127.11129336481638, 37.71042335892935], [127.11132567004641, 37.71033660123343], [127.11135586044591, 37.71025801142023], [127.11141808125187, 37.71002592862372], [127.1114457361177, 37.70991017197571], [127.11144525945593, 37.70970489737834], [127.11146581812281, 37.709462715845525], [127.11102053955868, 37.709026387569565], [127.11081877129764, 37.708839881937045], [127.11077691562625, 37.708695467412596], [127.11080440970707, 37.7085906928301], [127.11084226604625, 37.70854363357008], [127.11088083243261, 37.70849741840068], [127.11096701989906, 37.70841652468751], [127.11104754605823, 37.70834239413109], [127.11124842939792, 37.708165093050866], [127.1113456658096, 37.70800534524358], [127.11144878988476, 37.70726552782181], [127.11146179909562, 37.706829341385934], [127.11141980699394, 37.70659144109124], [127.11141411483477, 37.706576803932904], [127.1114128677763, 37.70657229972761], [127.1113358257183, 37.706360337427135], [127.11123827153041, 37.706056878927036], [127.11112722524273, 37.705858182188315], [127.11056502267807, 37.705552051276165], [127.11019524935189, 37.70535133694143], [127.11006297865416, 37.705301335173814], [127.1098549696336, 37.705202687845535], [127.1096740499376, 37.705087120540625], [127.10949312112398, 37.70496479493224], [127.10918022154544, 37.70487694140585], [127.10908451077057, 37.70486435633317], [127.10898525224273, 37.70484924011308], [127.10888289422266, 37.7048974831426], [127.10878407824391, 37.704944314978796], [127.10843006884365, 37.704982646296955], [127.10773504522291, 37.704724490035716], [127.10681034829062, 37.70445442416129], [127.10652893147738, 37.7044467874721], [127.10642118528672, 37.70444406627755], [127.10591701734575, 37.70443577874278], [127.1057681586261, 37.70443281128136], [127.10528850070531, 37.70459345047939], [127.10448323000873, 37.70482645439036], [127.10340047851821, 37.70547840601761], [127.10229898668759, 37.704983469222206], [127.10049428862003, 37.704172886649665], [127.10005651183366, 37.70397979951072], [127.09874822743316, 37.70290493502093], [127.09847648077904, 37.70228088215148], [127.09734333666677, 37.701635839689736], [127.0965296196663, 37.700924360587884], [127.09548722789803, 37.70055574438644], [127.09525799286429, 37.70046131164974], [127.09491718632299, 37.700274324159366], [127.0942979641393, 37.69991043491315], [127.09381896197651, 37.699733969915286], [127.09354763593012, 37.69955734348535], [127.09335313853168, 37.69946428823982], [127.0932205953183, 37.699463826676784], [127.09311694322767, 37.69947010090086], [127.0929635508501, 37.69951921395004], [127.09285265685045, 37.69969134700229], [127.09279937071403, 37.699732780628274], [127.09274166004016, 37.699778722960254], [127.09265868893405, 37.69989001219951], [127.0925546126442, 37.70013309916984], [127.0922150203679, 37.70050814641307], [127.09193656420456, 37.70059170614722], [127.0918634091221, 37.70061513291379], [127.09169371664505, 37.70066876195929], [127.09104069867921, 37.70078470173815], [127.09054759834453, 37.70097344961316], [127.09031878252743, 37.70092997383062], [127.09009565193, 37.70074767205028], [127.08952593248877, 37.70042229827666], [127.0883860222626, 37.700119581727236], [127.08775378262082, 37.69996544830446], [127.08766302627387, 37.699937918261234], [127.08753801974711, 37.69986535914959], [127.08743412065795, 37.69981108779414], [127.08728073853598, 37.69971686670814], [127.0868784217294, 37.699645631368114], [127.08678073037194, 37.69959586037216], [127.086551376414, 37.699540832665555], [127.0863984012105, 37.699491945316225], [127.08621739112213, 37.69940900580174], [127.08598874065088, 37.69934834480218], [127.0857592161714, 37.69929810261646], [127.0853071233341, 37.699237878692394], [127.08522152519082, 37.69922639350393], [127.08514000225556, 37.69921462382589], [127.08498040908145, 37.69910829591431], [127.08486814598822, 37.69901882998927], [127.08479116627733, 37.69894876881931], [127.08445611413079, 37.69864657876919], [127.0843791401242, 37.69858102268157], [127.08425018172817, 37.69845439847438], [127.08419376253353, 37.69838882807981], [127.0840904621561, 37.69822952213782], [127.08404964023359, 37.69816760153569], [127.08395129818227, 37.698004913032484], [127.08384926369843, 37.697868132801304], [127.08381269080405, 37.69780254859036], [127.08376124762478, 37.69774964589337], [127.08368231841, 37.69767705105488], [127.08365340806264, 37.69765116503429], [127.08356082921341, 37.6975729477598], [127.08351962809334, 37.69748737408154], [127.08348800849173, 37.697413901996825], [127.08344213812633, 37.69727060654173], [127.08341608676388, 37.69710279963149], [127.08340579171929, 37.69692231062477], [127.08341522408409, 37.69663283471008], [127.08341027552925, 37.69648078213406], [127.0834104283557, 37.696458255221216], [127.08341530827002, 37.69621918612855], [127.08345591820611, 37.69592293083903], [127.08345099642942, 37.69579565772036], [127.08344039250358, 37.69565712507438], [127.08340914088295, 37.69543159671184], [127.08337842222785, 37.6952071943092], [127.0833728388055, 37.69495940316825], [127.08334169793574, 37.69467192594341], [127.0838752703195, 37.69359534202034], [127.08263676408733, 37.69359224386041], [127.07986173237772, 37.69358676658563], [127.07945174893383, 37.693602239076704], [127.07935706405193, 37.69353443846564], [127.07917283739663, 37.69340305746497], [127.07895130295113, 37.693346883507914], [127.07872467814151, 37.69316343586599], [127.07848922779323, 37.6931863954479], [127.0784559003299, 37.693169240106826], [127.07838020722514, 37.69313296408538], [127.07820570967603, 37.693158418334484], [127.07805530379348, 37.69317907002238], [127.07794717087037, 37.69312704561992], [127.07763039685643, 37.69297603551734], [127.0769743630466, 37.69286437853286], [127.07663010776304, 37.69269170092846], [127.07621021313707, 37.69271392639467], [127.07579978524217, 37.69245230652696], [127.07541613368075, 37.69221066131144], [127.07525728468129, 37.69211107769203], [127.0751825960437, 37.692011723879936], [127.07505876680472, 37.691847917059036], [127.07502582169255, 37.691675325399515], [127.07494163162114, 37.69164355772326], [127.07473780375335, 37.691567090865334], [127.0741059002359, 37.6914737062344], [127.07384634886151, 37.6914873787864], [127.07347907962806, 37.69150731017142], [127.0731481378523, 37.69134615938689], [127.07285952553154, 37.69135534171125], [127.07278086198943, 37.691358485796705], [127.07257688022885, 37.691303697363686], [127.07254019598864, 37.691294426718294], [127.0720541943303, 37.691478588000024], [127.07169116259176, 37.69148302413675], [127.07150256171397, 37.69158365999211], [127.07125698510838, 37.69138106115437], [127.07092237943955, 37.691276223317246], [127.0703699375053, 37.69068380347878], [127.07009081501661, 37.690015479077346], [127.06986911234716, 37.68975344915616], [127.06985893727459, 37.68966869771406], [127.06985483394443, 37.68963716247336], [127.06983143804786, 37.68962703867963], [127.06934562606291, 37.68942344556907], [127.06902934071447, 37.689186809994666], [127.06831155689213, 37.68851168676506], [127.06793936975659, 37.688159910746194], [127.06781169926299, 37.68803523870787], [127.06778482507548, 37.68789558707273], [127.06774496058188, 37.68769033313984], [127.06758335239692, 37.687450792594404], [127.06745740387917, 37.68726670465714], [127.06722106517597, 37.68706409219909], [127.06662472713212, 37.68686251912017], [127.06656518273807, 37.6868431218788], [127.06631541611962, 37.6868871838215], [127.06564592179626, 37.686696626945256], [127.06542203583294, 37.686546942327304], [127.06519744140294, 37.686396412897636], [127.0650468075142, 37.68634411746021], [127.06442458531949, 37.68653535880526], [127.0643240952282, 37.68649007591192], [127.06416015654884, 37.686416104180246], [127.06407005196634, 37.68628859267234], [127.06390556588035, 37.68619434670288], [127.06366923747898, 37.68598834805241], [127.06249492876331, 37.68590644280957], [127.06248926222682, 37.68590982470104], [127.06192044585559, 37.68620493094603], [127.06188697515292, 37.686221842832296], [127.06095787745583, 37.68616204463104], [127.06070339191788, 37.68629057270556], [127.06038738490585, 37.686361686771654], [127.06014698865467, 37.686383204236215], [127.05993446862627, 37.68648495963203], [127.05982271831573, 37.68653851489967], [127.05966138041998, 37.68661687347591], [127.05893512852644, 37.68678532745334], [127.05844904262324, 37.68662477206897], [127.05752545210218, 37.68658859742862], [127.05751836548623, 37.686588600711424], [127.05749143531342, 37.686587205254625], [127.05701449235572, 37.68656855887025], [127.05693086765314, 37.686564936606175], [127.05673771202906, 37.68650223136443], [127.05671360453918, 37.68648422088946], [127.05652943442998, 37.68635167796894], [127.056480689584, 37.686317628268085], [127.05623359445488, 37.686139778170904], [127.05610313431077, 37.686045787503645], [127.0560657331827, 37.686018490565935], [127.0557938251288, 37.685823755583776], [127.0557578423332, 37.685797584253706], [127.05565202205281, 37.685721885101394], [127.05546272991474, 37.68560623792813], [127.05524295270725, 37.6854711745739], [127.05505153352513, 37.6853521486514], [127.05504462103427, 37.68534764633767], [127.05497265271366, 37.68528995307798], [127.054910433931, 37.685240139872874], [127.05476791668126, 37.68512700520413], [127.05452808462326, 37.68493675852941], [127.05450131821627, 37.6849150881472], [127.05449493650312, 37.684909459225814], [127.0543089583043, 37.68471271204976], [127.05415684296572, 37.68455114807301], [127.05402991654496, 37.684435471448644], [127.05390653545449, 37.684322327423274], [127.05386968694145, 37.684323469700225], [127.05362432261245, 37.68432695453587], [127.05329463217709, 37.68433357237414], [127.05327904209291, 37.68433357903613], [127.05288479710485, 37.68423857084347], [127.05255428453994, 37.68460589827422], [127.05253057034076, 37.684643922329734], [127.05249411422344, 37.68470250749719], [127.05245907440036, 37.684759684129006], [127.05225007371976, 37.685101616828945], [127.0521694859406, 37.68540097611424], [127.0521601201654, 37.685437022994144], [127.05211211725015, 37.68598557191217], [127.05211989312944, 37.68622435329366], [127.05212586632237, 37.68641611061749], [127.05216891482236, 37.68667993836723], [127.0522091237473, 37.686935882879936], [127.05222958218053, 37.68706315101487], [127.05223507347684, 37.68732924710277], [127.0522031628293, 37.68756579233843], [127.05217346852339, 37.68767139934108], [127.05209534016936, 37.687943725204946], [127.05202940861456, 37.68817465284799], [127.05201703351851, 37.68821520632229], [127.05160247973402, 37.689603876443435], [127.0516003580832, 37.68961063537127], [127.05147880192527, 37.6901296475306], [127.05143121704738, 37.69024455399063], [127.05122761077556, 37.69073938323363], [127.05108189294938, 37.69116379209157], [127.05031274981962, 37.69113143998715], [127.05023875615032, 37.690956605178364], [127.0498594767645, 37.69048059589155], [127.04973866613074, 37.69051640529709], [127.04965275228376, 37.69054178208508], [127.04954463594815, 37.69047846818339], [127.04950156681623, 37.69045342411008], [127.04934977060459, 37.69023750797259], [127.04917542603788, 37.69022912896489], [127.0490554201833, 37.690134000120466], [127.0489362865749, 37.690016343974825], [127.04885935830562, 37.689959775308466], [127.04877093938994, 37.689944604125905], [127.04861288515177, 37.68991932281907], [127.04846083906007, 37.689868133115645], [127.0484190177436, 37.68985435158081], [127.04824161816315, 37.68977360490478], [127.04802168657166, 37.689674852774544], [127.04787302246245, 37.68964815895341], [127.04785034231644, 37.68964478857647], [127.04778655318607, 37.68963326787366], [127.04772506731972, 37.68962174626068], [127.04758740721977, 37.6896268670547], [127.04745134098076, 37.689630860743875], [127.04719303998868, 37.68965911661062], [127.04712013255656, 37.69010517536178], [127.04676921349046, 37.69021090099924], [127.04614637994841, 37.69040120127604], [127.04611290034204, 37.690412195383885], [127.04584454365518, 37.69082819512374], [127.04583958468956, 37.69083157595501], [127.04568066940904, 37.690851063118686], [127.04546913739493, 37.69087845346934], [127.04510703173885, 37.690951514278055], [127.04498078146241, 37.691086157235915], [127.04508186279452, 37.691246624799255], [127.04515524471553, 37.69130094450565], [127.04522525910428, 37.69135301269161], [127.04531799923987, 37.69148757718289], [127.04531734251145, 37.69157881108649], [127.04532018504956, 37.69159232616253], [127.04532001493169, 37.691604715980894], [127.04531724875886, 37.691725235521616], [127.04531415068044, 37.691885177132015], [127.04530348074903, 37.69212734438853], [127.04529770521577, 37.69225265195152], [127.04524531327384, 37.69234587553334], [127.04523026841828, 37.69237291312988], [127.04512080201918, 37.69242645359814], [127.04503645749098, 37.69241381243151], [127.04502457946803, 37.69240142692054], [127.04496040605376, 37.69234034580996], [127.04491591868069, 37.69231304789279], [127.04489323213825, 37.69229953987828], [127.04440453158738, 37.69222650073593], [127.04428104638367, 37.69224174975149], [127.04427537728543, 37.69224287808256], [127.04424490439378, 37.692246267797], [127.04412675944182, 37.69230656843547], [127.04406035451125, 37.69237389053703], [127.0439406476575, 37.69249416921259], [127.04393692859574, 37.69249726794596], [127.04383030416193, 37.692565730249534], [127.04368413742604, 37.69257760748723], [127.04363664263936, 37.692558194518455], [127.0435412977051, 37.69251739754838], [127.04312318648405, 37.692249753263496], [127.04290413222901, 37.692136067307125], [127.04282332835258, 37.692116665306585], [127.04278735627145, 37.692107666750324], [127.04272639886072, 37.69209276333306], [127.04269804593034, 37.69208460693162], [127.04266544087275, 37.692076733542976], [127.04265002393826, 37.69207223337594], [127.04260536820254, 37.692059577081686], [127.04253962465134, 37.692040169813566], [127.04249087887628, 37.69199935631368], [127.04237513455712, 37.69191097731639], [127.04233986119782, 37.69188283058359], [127.04233560713513, 37.69187945298204], [127.0421891750166, 37.69172209564167], [127.04215602438458, 37.69168719009622], [127.04215318776188, 37.69168381201602], [127.04211595956028, 37.69164412086495], [127.04196226233516, 37.69148338662786], [127.0419574755994, 37.69147775650574], [127.04192006703371, 37.69143158888693], [127.04185961299864, 37.691361494114176], [127.0418307194874, 37.69133531621582], [127.0418004075532, 37.69130716768043], [127.04167866811757, 37.69127060168211], [127.04159061296832, 37.69127372805135], [127.04158565187763, 37.6912734480939], [127.04142619674023, 37.69128082152806], [127.04142052708896, 37.691280823380616], [127.04127294043056, 37.69128368736268], [127.04124012896979, 37.69121808863686], [127.04119863592828, 37.69115249272163], [127.04116069010054, 37.69109393527542], [127.04104811484854, 37.690960500265284], [127.04099315676778, 37.6908949086309], [127.04095947021172, 37.690849584256256], [127.04093553482116, 37.690816928070625], [127.04077955877574, 37.69069589655052], [127.04065831294989, 37.69058161175456], [127.0405425730091, 37.69049323093502], [127.04049100080279, 37.69046480725944], [127.04048196262073, 37.690460304773666], [127.04041391549416, 37.69043639168187], [127.04015965303881, 37.690402682056785], [127.03996120987168, 37.6903872574042], [127.0396552105003, 37.6903487759905], [127.03947323317584, 37.690309692203854], [127.03925898613429, 37.69022105905139], [127.03919465368399, 37.690183628007134], [127.03915601041787, 37.690143936346665], [127.03914324731718, 37.69013042416857], [127.03908382933899, 37.6899972524928], [127.03904997387713, 37.68996572530553], [127.03899077159069, 37.68991139744671], [127.03890747424133, 37.68985792167546], [127.0388473944366, 37.689820489140466], [127.03866629224629, 37.689755497973515], [127.03856510961404, 37.689720330439954], [127.03843149733032, 37.689670248566465], [127.03815504806252, 37.68954418125738], [127.03800175470577, 37.689461159275815], [127.03797127576789, 37.689449904926434], [127.0379422140845, 37.68943836856245], [127.03791670181376, 37.68943950248458], [127.03790748885787, 37.68943950522055], [127.03787914328576, 37.68944373741631], [127.03783079111818, 37.68947754201182], [127.03778706109084, 37.6895448538936], [127.03774633553888, 37.68959639608289], [127.0377114435959, 37.68962005957184], [127.03766591745465, 37.689635560207485], [127.03759788720787, 37.689644309399014], [127.03753127013557, 37.68964404740054], [127.03746252280803, 37.68963477525327], [127.03727007751414, 37.68955739550287], [127.03714426094167, 37.68950505721246], [127.03695270165923, 37.68942655034295], [127.0367349064782, 37.68931538677486], [127.03653767149441, 37.68922111206863], [127.03650169737638, 37.689202819268885], [127.03641486335809, 37.68915863505999], [127.03632272125155, 37.689129939495075], [127.03626619546817, 37.689111934033136], [127.03621304037867, 37.68910378308476], [127.03617973000952, 37.689099005538516], [127.03606846823844, 37.6891032606757], [127.03605358571276, 37.689102983276236], [127.03602878221359, 37.689104116590684], [127.03598041728974, 37.689110606638174], [127.03587270340847, 37.68912499767367], [127.03576622558403, 37.6891300959442], [127.03575630398024, 37.68913009870966], [127.03571732513397, 37.68912757529657], [127.03558993017764, 37.6891078997031], [127.03534575663544, 37.68903616284711], [127.03511504990745, 37.688967519246305], [127.03504063257071, 37.68895486820886], [127.03493662563392, 37.688937438214836], [127.03467440480395, 37.68891948770507], [127.03460690397316, 37.688922603319], [127.03457218181035, 37.688930497046876], [127.03454933584574, 37.68895190368211], [127.0345286215439, 37.688986544260594], [127.03450244228586, 37.68908566938439], [127.03447626343593, 37.68918592084266], [127.03442199609475, 37.68947962904848], [127.03441052947248, 37.68959677168058], [127.0343914405686, 37.689704905609894], [127.03436843332878, 37.689764607876654], [127.034344172044, 37.68979164655666], [127.03428997311183, 37.6898296750403], [127.03422815188259, 37.68985869478914], [127.03421681516471, 37.68986432951076], [127.03420476927846, 37.68986883807768], [127.0341670364601, 37.689880956266705], [127.0340982964114, 37.68988857728552], [127.0339032371642, 37.689909184483135], [127.03373439772297, 37.68992556072109], [127.03358735378936, 37.68994981543935], [127.0334773445744, 37.6899875764773], [127.03341180594438, 37.69002560749679], [127.0333471526554, 37.69006251190909], [127.03328657751797, 37.69010729962784], [127.03325080860975, 37.69015686788444], [127.03316568078367, 37.69038525557993], [127.03311331701705, 37.69058209724287], [127.0330692556843, 37.69071839588202], [127.03306271525877, 37.69075556683378], [127.03304786810632, 37.690843425288094], [127.03303903349558, 37.69090312365906], [127.03303373509316, 37.6909447996574], [127.03300647768945, 37.69101323188073], [127.03293865235256, 37.69109519054106], [127.03283167043547, 37.69117603276773], [127.03275622074494, 37.691244477156495], [127.03270593406512, 37.69132305221184], [127.03265053491916, 37.69146611159339], [127.03260050784169, 37.691751933387934], [127.03259716887399, 37.69182064106448], [127.03259558505633, 37.69184767366076], [127.03258921428615, 37.69186682307169], [127.03256815568975, 37.69193102984112], [127.03254372528666, 37.69198172135569], [127.0323652090431, 37.692182536483045], [127.03225097836872, 37.69230843363871], [127.03217360681697, 37.69245009031426], [127.0321626340917, 37.69248163059865], [127.03210936085652, 37.69262891295074], [127.03203218924548, 37.69283026556908], [127.03196581787856, 37.69301274925047], [127.03189343683323, 37.69323324838575], [127.03183574218306, 37.69340418484943], [127.03180355897278, 37.69356863856574], [127.03180522621713, 37.69375561079743], [127.03183348371924, 37.693975521978615], [127.03183285817077, 37.69418952694633], [127.03183219321677, 37.69430216121915], [127.03181455578023, 37.69451053864364], [127.03181142432113, 37.69465949801308], [127.03180984103342, 37.69468878326774], [127.03180296931733, 37.69478790296094], [127.03177573472142, 37.69492166262652], [127.03174121937904, 37.695014031034546], [127.03173767916006, 37.69502304262823], [127.03166934290519, 37.6951714547433], [127.03158332985826, 37.69542912618298], [127.03149576653713, 37.69580393736915], [127.03140708484945, 37.69603682980362], [127.03138708028747, 37.69608301461031], [127.03132724235057, 37.69621818994332], [127.0313244093799, 37.696223540744874], [127.03121054869094, 37.69641138545654], [127.03110164830065, 37.696598102525165], [127.03101133228986, 37.69673187704797], [127.0309720186101, 37.69679130088415], [127.03094137581968, 37.696820593033195], [127.03084785322812, 37.69691015932058], [127.03076230365565, 37.69699887889281], [127.03070792761316, 37.697056053516356], [127.03051630272036, 37.69731234103708], [127.03031955112799, 37.69760439073775], [127.03022798470346, 37.69771789080121], [127.03018866626446, 37.69776745888886], [127.03013463742205, 37.69780773805411], [127.03010257089123, 37.69782210629867], [127.03009335854365, 37.69782661378588], [127.0300621755942, 37.6978345053582], [127.0300520760487, 37.69783563402535], [127.02996560808839, 37.697840722442365], [127.02989898534118, 37.69784496149699], [127.0298706349905, 37.69784609432735], [127.02967041919834, 37.697877959083215], [127.0296640406798, 37.69787908687202], [127.02959724270889, 37.69788895749796], [127.02936513405051, 37.697926460656106], [127.02932402730457, 37.697931819994814], [127.02927158063417, 37.69793830819711], [127.02924464658193, 37.6979360615389], [127.02921363063336, 37.6979155127543], [127.02917339205048, 37.697870468113564], [127.02914679920237, 37.69783077053815], [127.0291377524723, 37.69780261404163], [127.02911061103391, 37.69771448394095], [127.029061498777, 37.69762889297691], [127.02904891054605, 37.6976072137162], [127.02899341864924, 37.697519089871186], [127.02894556197377, 37.69747629951669], [127.02889540648961, 37.69744674415021], [127.02886988573516, 37.69743182576396], [127.02878712556473, 37.69739777216789], [127.02859467465215, 37.69733614713216], [127.02845751080592, 37.69728380211693], [127.02842915678313, 37.697273671196356], [127.02839867560942, 37.69726100646292], [127.02825087829345, 37.69720190546309], [127.02806852171759, 37.69712112960573], [127.02799231450761, 37.69707581064496], [127.02798380671032, 37.69706792807174], [127.02794357264607, 37.69703273848376], [127.02783509802225, 37.69693082765715], [127.02782729939561, 37.69692407126301], [127.02775534434055, 37.69687649856707], [127.02761658946693, 37.696830910948556], [127.02750122641301, 37.696793202671095], [127.02740854671889, 37.69676450029143], [127.02717286139959, 37.69669387118444], [127.02707238598612, 37.69666629648574], [127.02700292435075, 37.69665589205863], [127.02688101966505, 37.696660985455374], [127.02680288048332, 37.6966652251039], [127.02665829803571, 37.696678207251374], [127.02653621967742, 37.6966945637331], [127.02647296828476, 37.696711189923775], [127.02644444433069, 37.69672245903104], [127.02615087815146, 37.69684078306886], [127.0256847393084, 37.6969965906828], [127.02554565577452, 37.69703209721402], [127.02548594597157, 37.69704309049103], [127.02544129630861, 37.69705070183701], [127.02535748654363, 37.69705494161183], [127.02530716303758, 37.69705016424155], [127.02525825748376, 37.69704679450657], [127.0249997243878, 37.69700516866125], [127.02458719175682, 37.69688951378971], [127.02434371431114, 37.69682563850665], [127.02425936791383, 37.69681157456369], [127.02419558273166, 37.69682256792619], [127.02411214133697, 37.696875239395986], [127.02396120371687, 37.69697494760605], [127.02379608824516, 37.69706677375162], [127.0236710080142, 37.697124802399415], [127.02354946796376, 37.69717044054773], [127.0234309356566, 37.697200309278884], [127.02332710831192, 37.69722369888505], [127.02324313674366, 37.69728538055265], [127.02316466317362, 37.69736620900354], [127.02309486355406, 37.697416624721576], [127.02294108226758, 37.69749352370926], [127.02269871175663, 37.697596343240875], [127.02238866027422, 37.697725924068905], [127.02213035542542, 37.69788478049839], [127.02207047391525, 37.69792167790216], [127.02199145844301, 37.69796984178029], [127.02189809745192, 37.69804616642816], [127.02181537120845, 37.698135723794294], [127.02178242218112, 37.69817064562916], [127.02167312640675, 37.69829878430425], [127.02143522814708, 37.698589417759045], [127.02140599337396, 37.69859843307537], [127.02137551655727, 37.698600690537425], [127.02135070959946, 37.69860153917876], [127.02114374121376, 37.69857819983694], [127.02110546613882, 37.69857341880925], [127.02097380785982, 37.69856048615959], [127.02074557643799, 37.69853714937758], [127.0203835594383, 37.69849524746134], [127.02017021234897, 37.698470499431046], [127.02015178367738, 37.698468249449476], [127.02001303411551, 37.69843842165993], [127.01988934251992, 37.69839282277261], [127.01970540040554, 37.69832555031057], [127.01942452635483, 37.69822421939607], [127.01927656194893, 37.69818735240304], [127.01921277096196, 37.69818060320794], [127.0190446177473, 37.6981944240331], [127.01874074335267, 37.69824965594792], [127.01856125308235, 37.69828037271232], [127.01841081867751, 37.698293345522195], [127.01826622875119, 37.698292519708914], [127.01820173009264, 37.69829112017595], [127.01802453368332, 37.698275937456124], [127.01798271235829, 37.69825763978537], [127.01795099203432, 37.69824412775662], [127.01793816529748, 37.69878026738088], [127.01786080242825, 37.69913394805798], [127.01781262624006, 37.69923842221601], [127.01767748407453, 37.69953072450719], [127.01756628558677, 37.699940444601474], [127.01751902969869, 37.70022428815566], [127.01751761344322, 37.70023104637124], [127.01757330563554, 37.70049488458428], [127.01762345645156, 37.70051318135276], [127.0176344574888, 37.70058751841244], [127.01770694776461, 37.70066776104441], [127.01780991741273, 37.700752786722745], [127.0178620224092, 37.70079473627903], [127.01803482326943, 37.70094986752781], [127.01842893820636, 37.70105963438559], [127.01846438078, 37.701072019447835], [127.01866250456855, 37.70113929191786], [127.01879277569422, 37.70127527995133], [127.01880695461786, 37.70128879411564], [127.01882349477162, 37.701571503159116], [127.0191857929307, 37.70202396061438], [127.01957998747615, 37.70245585671434], [127.0197409159926, 37.70257944959163], [127.01989067110615, 37.702658835032324], [127.0201189164623, 37.70268893148646], [127.02077973393946, 37.70279104839284], [127.020957679726, 37.702926745168476], [127.0210590654948, 37.70302866331065], [127.0211147213184, 37.70308412693916], [127.02119267690001, 37.703745839243396], [127.02125352180794, 37.70400179038489], [127.02131450809797, 37.70411131736311], [127.02151056938798, 37.7043917450281], [127.02149925117757, 37.70448410662692], [127.02149358164581, 37.70448861287818], [127.02144361788473, 37.70452438201863], [127.02134973576308, 37.70467842363071], [127.02131645004826, 37.70479753919826], [127.02134412094152, 37.70490369233047], [127.0216332388946, 37.705260977791454], [127.02161625224767, 37.70536235100076], [127.0215439769716, 37.70546795673656], [127.02117616033681, 37.70576170723136], [127.02095983815528, 37.70597827923336], [127.02051001478802, 37.706472246886314], [127.02021554140195, 37.70670544264592], [127.01953764444168, 37.70724787238231], [127.0190856518822, 37.70762469559328], [127.01900378629058, 37.70766159439724], [127.01899669839685, 37.70766497438132], [127.01867878304877, 37.7077097893369], [127.01859070938026, 37.70772190923663], [127.01847411166364, 37.70777092043123], [127.01839671965763, 37.70801731718487], [127.01840269440257, 37.70862469439997], [127.01836338059475, 37.708762112845974], [127.01816425415169, 37.709087932167826], [127.01797502270567, 37.70927774452758], [127.01755718413641, 37.70950588073528], [127.0170668674661, 37.70977429077956], [127.01673942191034, 37.71008717011027], [127.01584496101047, 37.71096468909313], [127.01562824988804, 37.71115872441019], [127.01548845803848, 37.711382317497765], [127.01521055142132, 37.71234029713126], [127.01519964422668, 37.71282912879955], [127.01501061935188, 37.71330389965231], [127.014877395081, 37.713626608953504], [127.01486039732472, 37.713727981047874], [127.01489000042379, 37.71376317608258], [127.01513267706589, 37.714058251525806], [127.01567952415404, 37.71458109556489], [127.01577417824024, 37.71465119975253], [127.01591295889773, 37.714695674826025], [127.0162243695617, 37.71477025985928], [127.01626106403837, 37.71481108542725], [127.01633498435315, 37.71489020220883], [127.01638003258631, 37.71506168189692], [127.0163573850575, 37.715273435866386], [127.01630779449168, 37.71546688991574], [127.0163184493303, 37.7155820566673], [127.01635730756723, 37.71582449628049], [127.01630202621494, 37.71591320162031], [127.01625174843736, 37.71623083435085], [127.01624487221898, 37.716431323099535], [127.01612258373176, 37.716457805804396], [127.01570644747852, 37.7165462692184], [127.01545041547577, 37.71699148140183], [127.01521191027247, 37.71733532086177], [127.01496221900327, 37.71756962472482], [127.01461646818943, 37.71784195150403], [127.01453849847158, 37.71794304794389], [127.01452206766373, 37.718278979448066], [127.01436064399591, 37.71855663721342], [127.01416110995127, 37.718820500772864], [127.01395522411377, 37.71928851304537], [127.01364968199758, 37.71946396820821], [127.01360006899255, 37.71956984833788], [127.01362773563793, 37.71968473212211], [127.01389472086203, 37.720058932718324], [127.01393070664405, 37.720092719439826], [127.01400551498989, 37.72016536109469], [127.01444513640286, 37.72050519076007], [127.01461124725813, 37.7207028463474], [127.01473376197744, 37.72093683041863], [127.01479513193134, 37.72120179478279], [127.01474501632924, 37.72148760758055], [127.01464546048578, 37.72185367671334], [127.01460048270488, 37.72213047821931], [127.01462284060001, 37.72228506558331], [127.01473420527223, 37.72260774963814], [127.01477890845196, 37.722832167524864], [127.01473461931963, 37.72298169304075], [127.01463431769257, 37.72312784512235], [127.01432150204793, 37.723355395657606], [127.01328812989078, 37.72344785084194], [127.01299282967439, 37.72347490856968], [127.01259333401924, 37.72373005712218], [127.0120799066145, 37.72435465126207], [127.01186356817497, 37.72510396249081], [127.01083035629325, 37.72529354250588], [127.01116418422868, 37.725759259137234], [127.01138081456837, 37.72593579676082], [127.01165878286534, 37.72615569333386], [127.01178075227385, 37.72627901788413], [127.01189192256992, 37.726512723958564], [127.01197013011715, 37.72680472029423], [127.01197549408226, 37.72718232364815], [127.01190354486856, 37.727340860797554], [127.01171461076108, 37.72757458955947], [127.01148686654717, 37.72791053572085], [127.01134241652598, 37.72808681754385], [127.01065184615865, 37.728578510094124], [127.01056838409917, 37.72886882828893], [127.01045176951003, 37.72912986384535], [127.01005755658332, 37.72942442492786], [127.00976298948045, 37.729981133226204], [127.00954603133714, 37.730192051770196], [127.00939890929466, 37.730323277925336], [127.00928528164569, 37.73034862666441], [127.00885487839767, 37.73044269813479], [127.00838015060272, 37.730456518792366], [127.00823744858369, 37.730460467521226], [127.00789870473051, 37.73074291069742], [127.00756564977, 37.73132411277606], [127.0077876234048, 37.73176562669524], [127.00779830835397, 37.732501403869016], [127.00721602153831, 37.73354919862326], [127.00720680408243, 37.733565812382096], [127.00690368924786, 37.73411125012353], [127.00675230173074, 37.73427401037175], [127.00642469946982, 37.73447197375657], [127.00607458809363, 37.73483776051069], [127.00590210342514, 37.735063594882334], [127.00553533194028, 37.73570307940056], [127.00536887015909, 37.735896249161506], [127.00525399020609, 37.73587654069034], [127.00521215120393, 37.73586865718958], [127.00512865962257, 37.73615559217624], [127.00503435049363, 37.7363535469735], [127.00499021985281, 37.73681647065045], [127.00496221618288, 37.737081159395835], [127.00480089240048, 37.737323886867316], [127.00469009154823, 37.73745172739462], [127.00436708029305, 37.7377017777784], [127.00430042204614, 37.73779385630314], [127.00430024727942, 37.73792676357612], [127.00485022155056, 37.7389759346166], [127.00510216605063, 37.73948165346992], [127.00526936039672, 37.739747183093606], [127.00554381278067, 37.739865442140285], [127.00564699859372, 37.73990992990277], [127.00583067484206, 37.7399411811885], [127.00609165006826, 37.73995469037854], [127.00633596207558, 37.74001550543968], [127.00650262302028, 37.740134328516326], [127.00667531993996, 37.74039985594757], [127.00667426391833, 37.74055191084251], [127.00661328030598, 37.740662293347725], [127.00627927132929, 37.74095712088774], [127.00631296957607, 37.74122208956105], [127.00625730154714, 37.74128375784982], [127.00601830611711, 37.74126602470287], [127.00581210969295, 37.74122773470095], [127.00518997574426, 37.74111145468349], [127.00500115646201, 37.741120750456545], [127.00458984299038, 37.74163633563804], [127.00453399826614, 37.74180387832492], [127.00451751514372, 37.74205505059562], [127.00458914788526, 37.742252439265165], [127.00457266934305, 37.74270212752145], [127.00458366561065, 37.74286544548422], [127.00491168642405, 37.743478727974775], [127.00492818002571, 37.74364683269921], [127.00484539902075, 37.74435952044066], [127.00481225919378, 37.74497252690679], [127.00481812087877, 37.74538251144299], [127.00487913355991, 37.746114062606935], [127.00494563623485, 37.74656403077429], [127.0050850153291, 37.747062711353266], [127.00503502153795, 37.74732261315675], [127.00503485694463, 37.7477632901457], [127.00497883241665, 37.747970254453264], [127.00487759236216, 37.74815469288125], [127.00451641233597, 37.7483751776749], [127.00420523305276, 37.74862747965006], [127.00544151850919, 37.75029583655771], [127.00539435711883, 37.75044423160119], [127.00507273245125, 37.751448079879175], [127.00501032135953, 37.75164265455862], [127.00459558228495, 37.752231450356625], [127.004595233999, 37.752508527549665], [127.00428049551041, 37.752990600905186], [127.0044626299893, 37.75407975954242], [127.00381575224252, 37.75476682747764], [127.00349993559004, 37.75530183605814], [127.00338379106304, 37.75622063979737], [127.00347353049365, 37.75746157255993], [127.00416215725997, 37.75964833460476], [127.00436628169298, 37.7599791912545], [127.00437834122181, 37.75999833868866], [127.00500080815132, 37.76007097737817], [127.00639294407056, 37.76033140770011], [127.00646157572896, 37.76034407683613], [127.00680118754424, 37.76040742203408], [127.00693543887424, 37.76047893936173], [127.00720252555249, 37.76065604504312], [127.00752476861011, 37.76085905351134], [127.00768047925904, 37.7609204321834], [127.0087243359564, 37.761150156121886], [127.0099021251656, 37.76171410082966], [127.010069015768, 37.7618115181746], [127.01070220044572, 37.762419413533955], [127.01201305724184, 37.763160724784946], [127.01324657135162, 37.763583840563655], [127.01533550439757, 37.76428083540388], [127.01563523900788, 37.764350917272516], [127.0167018891673, 37.764686442749074], [127.01746876790104, 37.764739287779555], [127.01780171889317, 37.765047015147395], [127.01822404063529, 37.765267439578814], [127.01939096170481, 37.76578820844326], [127.02081299427202, 37.76581418787214], [127.02227961298534, 37.76542593588298], [127.02239204274592, 37.76537917473948], [127.02239913598854, 37.76537579458289], [127.02391266525267, 37.764737188153845], [127.0248683355099, 37.764472889965944], [127.02505706589362, 37.76456943721798], [127.02525695948516, 37.76463134747232], [127.02542366730017, 37.764622868257824], [127.02564568154565, 37.76452567983682], [127.02604586719129, 37.764217551256685], [127.02724511387959, 37.76422575698396], [127.0275627317785, 37.76417500616946], [127.02757904735765, 37.764173031679064], [127.02926706350078, 37.763660186819685], [127.02960065733707, 37.76366039326705], [127.03010053697905, 37.763959882111486], [127.03117834002512, 37.764551231973044], [127.03183418127553, 37.764541498940126], [127.03308922811344, 37.7643742059426], [127.03313321203925, 37.76437644731908], [127.03327863869606, 37.76437387567276], [127.03338789710394, 37.76439890824075], [127.03363372782913, 37.76445290809727], [127.03402312074563, 37.764709045416645], [127.03634628529676, 37.76557455468754], [127.0366920077502, 37.76531680862242], [127.03670991425709, 37.765303287555014], [127.03674909605942, 37.76527427337095], [127.03718399340315, 37.76495032845121], [127.03773937966014, 37.76477783740748], [127.03776349593463, 37.76477022756234], [127.03902924356211, 37.76438070001736], [127.03899159632007, 37.764280186809366], [127.03979875410391, 37.76399384954723], [127.04004547545217, 37.76404896208113], [127.0409510197585, 37.7640388177429], [127.04102710190729, 37.76403682207374], [127.04195594904282, 37.76382307872835], [127.04200773880677, 37.763830101098264], [127.04201749837088, 37.763840234808455], [127.0421608042505, 37.76385426624049], [127.04217357401616, 37.76385538831245], [127.04291546677882, 37.7639283499886], [127.04322389513274, 37.76395978201273], [127.04327710329774, 37.76396567701145], [127.04384392058266, 37.763656867594726], [127.04483227326439, 37.76300381300126], [127.04559857155301, 37.76235111231124], [127.04578082826752, 37.76225587140262], [127.04591255669574, 37.76218768054072], [127.04607619805522, 37.76210399082988], [127.04597081679225, 37.7611210264734], [127.047331085237, 37.76090314003098], [127.0475053713327, 37.76083380499041], [127.04756512165108, 37.76081041104337], [127.0476156521695, 37.7607903995502], [127.04808584989364, 37.76060296808609], [127.0485844254035, 37.76042453436892], [127.0484518009615, 37.760179327699454], [127.04929626071811, 37.759835749612556], [127.0500297928773, 37.7596411668296], [127.05142893544065, 37.75899662052472], [127.05297245855259, 37.75816755994106], [127.0548709640946, 37.7585972770762], [127.0554147178139, 37.75890227107707], [127.05618235345815, 37.75906637045351], [127.0563270540688, 37.759549218314774], [127.0566950699642, 37.759600017245766], [127.05747806992105, 37.75942169727386], [127.0580038868003, 37.759191681528115], [127.0585816435258, 37.75893911232384], [127.06235589399482, 37.75934302830596], [127.06278485962306, 37.75954188965394], [127.06427596615785, 37.7602312801895], [127.06640366895681, 37.76081387240155], [127.06750520757825, 37.76088901919635], [127.06751088351591, 37.760890142412556], [127.06771553602908, 37.7610924875173], [127.06838689068944, 37.76121882824996], [127.06904355887843, 37.76177796496681], [127.06974719298789, 37.76209491082318], [127.07191610320028, 37.762069162837555], [127.07206649038376, 37.76206738516934], [127.07256327658754, 37.76305741630987], [127.07397174531461, 37.76432679123374], [127.07439676083625, 37.76459741588553], [127.07440101943546, 37.76459966595649], [127.07616446709478, 37.76572181267934], [127.07717174880972, 37.765809880358624], [127.07805110693972, 37.765669939818025], [127.07851550952259, 37.76575834099226], [127.07874518738333, 37.765936153081334], [127.07874944734132, 37.765939529320875], [127.07969976110039, 37.76667187114811], [127.08016427737955, 37.76686163516381], [127.08043915430125, 37.76683667541097], [127.08125136662599, 37.766759547909516], [127.08365170913412, 37.76790058604032], [127.08510951663055, 37.7699058472064], [127.08546159804672, 37.7699182722099], [127.0858451160937, 37.769969250714865], [127.0867900232888, 37.770832192457114], [127.0873504960639, 37.7709841277105], [127.08854954107039, 37.77056342415272], [127.08926986608493, 37.77121053590933], [127.09008568168372, 37.7712991964371], [127.09195851407218, 37.7724908565783], [127.0920599704091, 37.77249134301459], [127.09234252087651, 37.77249112887468], [127.09309540316104, 37.773176487365795], [127.09427944202761, 37.7735312123939], [127.09483996137958, 37.77383516585644], [127.09576731582916, 37.77387217051454], [127.09682407199678, 37.77440521117407], [127.09728756697788, 37.77427728444221], [127.09768791821222, 37.77442958015579], [127.09938360701727, 37.77455491545785], [127.09994301280958, 37.774120820773014], [127.10002292775714, 37.77405908860902], [127.10074352690813, 37.7749471631722], [127.10096618977971, 37.77498949684508], [127.10098677022776, 37.77499314027182], [127.1010795605759, 37.77501023945234], [127.10157610346782, 37.77532744838841], [127.10173803270678, 37.77531548625349], [127.102407738552, 37.77526367478251], [127.1040725342306, 37.77599831056238], [127.10557551644465, 37.77590887550904], [127.10591244235154, 37.77622536034908], [127.10610505532051, 37.776720774782895], [127.10645686970089, 37.776897580693586]]]}}]}