{"type":"FeatureCollection","features":[{"type":"Feature","properties":{"code":"31030","name":"의정부시","name_eng":"Uijeongbu-si","base_year":"2013"},"geometry":{"type":"Polygon","coordinates":[[[127.1044568697009,37.779897580693586],[127.1063125681589,37.779731491697724],[127.10698497283299,37.78007300939873],[127.10811967370239,37.77957752569973],[127.10893601900091,37.77972883388313],[127.1096244849582,37.780007247598405],[127.1102003759614,37.78008358645971],[127.11080758322525,37.7796257337493],[127.11185996145393,37.77913930137578],[127.11363927905832,37.777640726309706],[127.1138816551355,37.77746112686176],[127.11394705705693,37.777428682281794],[127.1155253924831,37.77665984832523],[127.1156800129112,37.7757104870072],[127.11588718371881,37.77491003064613],[127.11575786743481,37.77398347220172],[127.11538926335831,37.773729844420316],[127.11552759033624,37.773488113016676],[127.11554899412116,37.77345092343533],[127.11614005179769,37.77292885791317],[127.11657157711394,37.772814113002454],[127.11729116250599,37.77294039770352],[127.11785139484155,37.77290182950143],[127.11849174670098,37.773168694654366],[127.11903624161118,37.77382845862486],[127.1202365754378,37.77421977366697],[127.12126006266945,37.773940248626594],[127.1216918740421,37.77400259943639],[127.12257081000351,37.77340474244453],[127.12314622473914,37.773430333974545],[127.12343437738032,37.77317548501757],[127.12388149182233,37.77316234805958],[127.12413817602804,37.773505609299775],[127.12444397406914,37.7735176786694],[127.12476183350743,37.773530016149266],[127.12621615159055,37.772537593201825],[127.12667845035118,37.77164871089958],[127.12789460572068,37.771850989976855],[127.12818229998263,37.7720660894534],[127.12878804017834,37.77085885660914],[127.12872255369902,37.769907744969245],[127.12894008361268,37.769548773794604],[127.12919408108387,37.767304009756266],[127.12919617815456,37.76728598624052],[127.12921414748192,37.76711363863567],[127.12900574563042,37.76679624112738],[127.12746821829752,37.76570536508521],[127.12662091745904,37.765846781406104],[127.12554956783474,37.763524587284984],[127.12581405751612,37.76356823401302],[127.12602311505202,37.76365671054418],[127.12621069572785,37.76373394626452],[127.1267878027129,37.76385976147695],[127.12694087852273,37.76387705593529],[127.12712193474191,37.763870948928734],[127.12735135928966,37.76383775788836],[127.12746228996811,37.763787517221196],[127.12760087812347,37.763732741405946],[127.12780985962505,37.76367141325641],[127.1279762879882,37.76361548068648],[127.12816396087358,37.763538406295176],[127.12851838139916,37.76348874617818],[127.12876243190016,37.76350537655444],[127.12938796543155,37.763431766471875],[127.12951279497092,37.763420930190264],[127.12965852141815,37.763393176029744],[127.12985330517289,37.76332735445552],[127.1299920093133,37.76323878586508],[127.13016622872294,37.76317749160859],[127.13035391736021,37.76311139540577],[127.13045761326374,37.76308368641915],[127.13059681447717,37.7630773384999],[127.13074989742267,37.76309913331717],[127.13096547424317,37.76316084361608],[127.13163387026734,37.7634625230314],[127.1328578092067,37.763621942172875],[127.13293350626579,37.76340672879254],[127.13305823700044,37.76314133879146],[127.13309260280329,37.76292053999621],[127.13323141017416,37.76269342914793],[127.133543912717,37.762511739033236],[127.13374732993228,37.76241774310198],[127.13392593742046,37.7623339117776],[127.13416260731182,37.762389679202926],[127.13647980415402,37.763214887077226],[127.13654918437574,37.763236770627636],[127.13680644915894,37.76330264597316],[127.13700838458347,37.76336886625405],[127.1371820911228,37.763417660756936],[127.1374535448934,37.76348379985942],[127.13797544652957,37.763572173842334],[127.13844813815734,37.763709035046716],[127.13855924637144,37.76375874530815],[127.1388725641805,37.76382961911897],[127.13915113612146,37.76390729082803],[127.13942931893955,37.764061271025916],[127.13977735342195,37.76429795333661],[127.14003440351871,37.763961722949375],[127.14008955751049,37.76386732788623],[127.14033955996936,37.76365162219024],[127.14041579753719,37.76345245355138],[127.14055419969841,37.76330417753284],[127.14067897525159,37.763171404517614],[127.14074856581445,37.763021801952256],[127.14071335008643,37.76268479015625],[127.14109474566952,37.76218227642526],[127.14117754253755,37.76207771098783],[127.14133024958288,37.7619001324723],[127.14148997729119,37.761590765005884],[127.14217008857182,37.760950760531166],[127.14233656149925,37.76083398589813],[127.14294111116392,37.76056322163124],[127.14287828809024,37.760353237126324],[127.14324450163393,37.759160013681445],[127.14362518929583,37.75849192205008],[127.14388163744344,37.75813878877097],[127.14493387060124,37.75711451943863],[127.14495599483217,37.75709309215047],[127.14541581844607,37.75664593981416],[127.14576193364422,37.75608826365286],[127.14591483509125,37.756022185368586],[127.146089001824,37.755949322716056],[127.14648405882369,37.75566781628012],[127.14682403466048,37.75506030443599],[127.14660087566051,37.754834188362025],[127.14600199756957,37.75425571237727],[127.14537172695114,37.75339512623675],[127.14507911309487,37.753008871947145],[127.14506470272877,37.75289287762679],[127.1438732823999,37.75158553379164],[127.1438457247333,37.75154699041996],[127.14371931593793,37.75100143681573],[127.14300323531715,37.75085841370556],[127.14247372546451,37.75045554319622],[127.14216018623046,37.75014702336121],[127.14236155221116,37.749744118799526],[127.14281810118246,37.74880477362587],[127.14260130541784,37.747994076515546],[127.14158582136737,37.74786801764954],[127.1411967953814,37.74776316944885],[127.1405987309928,37.747753461268125],[127.14027188828067,37.747715271383115],[127.14017469592827,37.74769933605967],[127.14007696907069,37.74768199337383],[127.13973651666862,37.74766634468671],[127.13965337140641,37.74767179266833],[127.13944456951073,37.74770498346459],[127.13928489097817,37.74774374787816],[127.13913876670978,37.74772984022046],[127.13899264458837,37.74771705870968],[127.13886720846803,37.74767271554631],[127.13837333972917,37.74753475394256],[127.1380474597082,37.74772886246985],[127.13763039804466,37.7479945978995],[127.1373042581694,37.74824248694722],[127.13711706077531,37.748359278659244],[127.13699892933525,37.7484309371182],[127.13697104710731,37.74850305446622],[127.13690498587786,37.74864026145641],[127.1368327413582,37.748789865173414],[127.1363401247132,37.749535499861686],[127.13564487072885,37.749519683387156],[127.13539521172105,37.74951461847567],[127.13479712375863,37.74949924924643],[127.13442842107344,37.74945517748631],[127.1342476662981,37.74941173682689],[127.13409473738854,37.74936178804737],[127.13386518271983,37.749295593747725],[127.13362852662021,37.7492240569278],[127.13339212869838,37.749098173896414],[127.13309302167899,37.74890449932562],[127.13215371601034,37.748740541677314],[127.1319592099205,37.748739913375054],[127.1317506986482,37.748740426631805],[127.1315976167784,37.74870258282781],[127.13122889077935,37.748641887698845],[127.13106319503244,37.74858941484954],[127.13079123597312,37.74850411375285],[127.13057372643709,37.748428044361134],[127.13033865188837,37.74834495429173],[127.12860037316638,37.74804865443316],[127.12858613777591,37.747915762829095],[127.12853698473793,37.7477893854407],[127.12836339592967,37.74747448225441],[127.12834549180245,37.747373131839474],[127.12832059520221,37.74722645416187],[127.12832752700608,37.74713296120376],[127.12836138356842,37.74702479682764],[127.12836931965195,37.74700000896472],[127.12843835134312,37.746829013566554],[127.12847315347791,37.746652141939734],[127.12870876495964,37.746226978303476],[127.12877072547275,37.7461720024592],[127.1287800855415,37.746150592013585],[127.12880587487363,37.74609452905835],[127.12880551385348,37.74588475028021],[127.128714366251,37.745669438323816],[127.12826896665678,37.745344692341895],[127.12809462490166,37.744896600759674],[127.12724579135867,37.744517658463536],[127.12641042037097,37.74402155721289],[127.12635442239151,37.743722575803936],[127.12582523642762,37.74300650935672],[127.12551894290219,37.74283563116845],[127.12526772606684,37.74241549316418],[127.1252463457107,37.74203453396608],[127.12476502810846,37.741092300866406],[127.1246675942111,37.740711139789916],[127.1238300006713,37.738834701864384],[127.12371734351433,37.737818867268],[127.12418223920257,37.737217764999166],[127.12417465842921,37.73702939375724],[127.12413243007207,37.736686751125646],[127.1240905511007,37.73655473236207],[127.1240905081572,37.73642182511543],[127.12409699830795,37.73627314237564],[127.12378251358474,37.73520289100499],[127.12396960602483,37.73481580034164],[127.12483760800427,37.734434190236804],[127.12540739221986,37.73413539301463],[127.12576112738611,37.73375994981416],[127.12574621341523,37.7333237929538],[127.1253981311814,37.73273339911257],[127.12531379293915,37.73254623517911],[127.12536240388857,37.7323580861293],[127.1255288316576,37.73213095403366],[127.12553005157146,37.7320126876942],[127.12553442186325,37.73144726346994],[127.1256529354289,37.73055620790442],[127.12573345144457,37.72994564955669],[127.12528763171457,37.72930551820606],[127.12539877587136,37.7292009333652],[127.12569718114446,37.7288244221473],[127.12588299600185,37.72769254066713],[127.12495745567279,37.72710951376805],[127.12503350319554,37.726794059972725],[127.12487348506144,37.72660669361379],[127.12423291460058,37.72619343745174],[127.1236563033645,37.72618812604041],[127.1237044613293,37.725940282188645],[127.12355766717931,37.72549243525411],[127.12359902237142,37.72531133385031],[127.12381348589662,37.724554776357394],[127.12377207679532,37.724488084160285],[127.12318030007413,37.72409082152518],[127.12290876010557,37.723660561164614],[127.12299165423784,37.723517712325005],[127.12314421340473,37.72337957813109],[127.1233391785655,37.72326871333777],[127.12377614955815,37.72309086084359],[127.12368551810711,37.72294762907536],[127.12354617632599,37.72271603057479],[127.12325429323803,37.72252373048158],[127.12318520387434,37.72243763748938],[127.12312179616495,37.72235745182736],[127.12304799938202,37.722210823088034],[127.1230170569852,37.7221486250955],[127.12286453518826,37.72230815949173],[127.12261465991911,37.722331226037944],[127.12247556003965,37.72235333311556],[127.12203099816499,37.72233154561051],[127.12181514005937,37.72223743659075],[127.12128056983971,37.722343859227486],[127.12125944101011,37.72232107250281],[127.1211827634519,37.722034779899886],[127.12110590968126,37.72196812289413],[127.12080722098493,37.72183636420109],[127.12061251018075,37.72177489519739],[127.12040372885416,37.72167063937326],[127.12023683847556,37.72160463619889],[127.12012281725356,37.72157039832062],[127.11947185858119,37.72137901457273],[127.11926157977895,37.7213344540275],[127.11903410129054,37.72128512341554],[127.11894347014952,37.72124663719356],[127.1187141412463,37.721147749033804],[127.11831054247858,37.72102143888371],[127.11823422007527,37.7208398931892],[127.11825485847514,37.72055265695244],[127.11819185398893,37.72038658507915],[127.11797585038123,37.72019335155603],[127.11773244143676,37.71992890402783],[127.1173984526255,37.719769013215554],[127.11727932888454,37.718962955651506],[127.11703547703327,37.71863768489361],[127.11686160706279,37.71852212497123],[127.1166242953697,37.71806957087189],[127.11626890674874,37.71713196232826],[127.11569887381887,37.717209109672254],[127.11560555747712,37.71714894148544],[127.11558089636382,37.71713207042558],[127.11536491848246,37.71706019476571],[127.11519146882665,37.71686804103423],[127.11371954257345,37.71790118323617],[127.11301750556275,37.718006883861044],[127.11272612639635,37.71800152892255],[127.11232991245231,37.71793601338814],[127.11177993623845,37.717445167548675],[127.11148732361231,37.716727684257705],[127.11102132146668,37.71632489183864],[127.11068009133632,37.71580090019618],[127.11004432983164,37.71395767641063],[127.10992635512847,37.71387499976667],[127.10969707779044,37.713787638833246],[127.10953003734743,37.71372162053595],[127.10926572633826,37.71355066047622],[127.10929336481638,37.71342335892935],[127.10932567004642,37.71333660123343],[127.10935586044592,37.71325801142023],[127.10941808125187,37.71302592862372],[127.1094457361177,37.71291017197571],[127.10944525945594,37.71270489737834],[127.10946581812281,37.712462715845525],[127.10902053955868,37.712026387569566],[127.10881877129765,37.711839881937046],[127.10877691562625,37.711695467412596],[127.10880440970708,37.7115906928301],[127.10884226604625,37.71154363357008],[127.10888083243262,37.71149741840068],[127.10896701989907,37.71141652468751],[127.10904754605824,37.71134239413109],[127.10924842939792,37.711165093050866],[127.1093456658096,37.71100534524358],[127.10944878988477,37.71026552782181],[127.10946179909563,37.709829341385934],[127.10941980699394,37.70959144109124],[127.10941411483478,37.709576803932904],[127.1094128677763,37.70957229972761],[127.1093358257183,37.709360337427135],[127.10923827153042,37.709056878927036],[127.10912722524273,37.708858182188315],[127.10856502267808,37.708552051276165],[127.1081952493519,37.70835133694143],[127.10806297865416,37.708301335173815],[127.1078549696336,37.708202687845535],[127.1076740499376,37.708087120540625],[127.10749312112398,37.70796479493224],[127.10718022154545,37.70787694140585],[127.10708451077058,37.70786435633317],[127.10698525224274,37.70784924011308],[127.10688289422266,37.7078974831426],[127.10678407824392,37.707944314978796],[127.10643006884365,37.707982646296955],[127.10573504522291,37.707724490035716],[127.10481034829063,37.70745442416129],[127.10452893147739,37.7074467874721],[127.10442118528672,37.70744406627755],[127.10391701734575,37.70743577874278],[127.10376815862611,37.70743281128136],[127.10328850070532,37.70759345047939],[127.10248323000873,37.70782645439036],[127.10140047851822,37.70847840601761],[127.10029898668759,37.70798346922221],[127.09849428862003,37.707172886649666],[127.09805651183366,37.70697979951072],[127.09674822743317,37.70590493502093],[127.09647648077905,37.70528088215148],[127.09534333666677,37.704635839689736],[127.0945296196663,37.703924360587884],[127.09348722789804,37.70355574438644],[127.0932579928643,37.70346131164974],[127.09291718632299,37.703274324159366],[127.0922979641393,37.70291043491315],[127.09181896197651,37.702733969915286],[127.09154763593013,37.70255734348535],[127.09135313853169,37.70246428823982],[127.0912205953183,37.702463826676784],[127.09111694322768,37.70247010090086],[127.0909635508501,37.70251921395004],[127.09085265685046,37.70269134700229],[127.09079937071404,37.702732780628274],[127.09074166004017,37.702778722960254],[127.09065868893406,37.70289001219951],[127.0905546126442,37.70313309916984],[127.0902150203679,37.70350814641307],[127.08993656420456,37.70359170614722],[127.0898634091221,37.70361513291379],[127.08969371664506,37.70366876195929],[127.08904069867921,37.70378470173815],[127.08854759834453,37.70397344961316],[127.08831878252744,37.70392997383062],[127.08809565193,37.70374767205028],[127.08752593248877,37.703422298276664],[127.0863860222626,37.703119581727236],[127.08575378262083,37.70296544830446],[127.08566302627388,37.702937918261235],[127.08553801974712,37.70286535914959],[127.08543412065795,37.70281108779414],[127.08528073853599,37.70271686670814],[127.0848784217294,37.702645631368114],[127.08478073037195,37.70259586037216],[127.084551376414,37.702540832665555],[127.0843984012105,37.702491945316225],[127.08421739112214,37.70240900580174],[127.08398874065088,37.70234834480218],[127.0837592161714,37.70229810261646],[127.08330712333411,37.702237878692394],[127.08322152519082,37.70222639350393],[127.08314000225556,37.70221462382589],[127.08298040908146,37.70210829591431],[127.08286814598823,37.70201882998927],[127.08279116627733,37.70194876881931],[127.08245611413079,37.70164657876919],[127.0823791401242,37.70158102268157],[127.08225018172817,37.70145439847438],[127.08219376253354,37.70138882807981],[127.0820904621561,37.70122952213782],[127.08204964023359,37.70116760153569],[127.08195129818228,37.701004913032484],[127.08184926369843,37.700868132801304],[127.08181269080406,37.70080254859036],[127.08176124762478,37.70074964589337],[127.08168231841,37.70067705105488],[127.08165340806265,37.70065116503429],[127.08156082921342,37.7005729477598],[127.08151962809335,37.70048737408154],[127.08148800849173,37.700413901996825],[127.08144213812633,37.70027060654173],[127.08141608676388,37.70010279963149],[127.08140579171929,37.69992231062477],[127.0814152240841,37.69963283471008],[127.08141027552925,37.69948078213406],[127.08141042835571,37.69945825522122],[127.08141530827002,37.69921918612855],[127.08145591820612,37.69892293083903],[127.08145099642942,37.69879565772036],[127.08144039250358,37.698657125074384],[127.08140914088295,37.69843159671184],[127.08137842222786,37.6982071943092],[127.0813728388055,37.69795940316825],[127.08134169793574,37.69767192594341],[127.0818752703195,37.69659534202034],[127.08063676408733,37.69659224386041],[127.07786173237773,37.69658676658563],[127.07745174893384,37.696602239076704],[127.07735706405194,37.69653443846564],[127.07717283739663,37.69640305746497],[127.07695130295113,37.696346883507914],[127.07672467814152,37.69616343586599],[127.07648922779323,37.6961863954479],[127.0764559003299,37.696169240106826],[127.07638020722514,37.69613296408538],[127.07620570967603,37.696158418334484],[127.07605530379348,37.69617907002238],[127.07594717087038,37.69612704561992],[127.07563039685644,37.69597603551734],[127.0749743630466,37.69586437853286],[127.07463010776304,37.69569170092846],[127.07421021313708,37.69571392639467],[127.07379978524217,37.69545230652696],[127.07341613368075,37.69521066131144],[127.07325728468129,37.69511107769203],[127.07318259604371,37.69501172387994],[127.07305876680472,37.694847917059036],[127.07302582169255,37.694675325399515],[127.07294163162115,37.69464355772326],[127.07273780375336,37.694567090865334],[127.07210590023591,37.6944737062344],[127.07184634886151,37.6944873787864],[127.07147907962806,37.69450731017142],[127.0711481378523,37.69434615938689],[127.07085952553155,37.69435534171125],[127.07078086198943,37.694358485796705],[127.07057688022886,37.69430369736369],[127.07054019598864,37.694294426718294],[127.07005419433031,37.694478588000024],[127.06969116259177,37.69448302413675],[127.06950256171397,37.69458365999211],[127.06925698510838,37.69438106115437],[127.06892237943956,37.694276223317246],[127.06836993750531,37.69368380347878],[127.06809081501662,37.693015479077346],[127.06786911234717,37.69275344915616],[127.0678589372746,37.69266869771406],[127.06785483394444,37.69263716247336],[127.06783143804786,37.69262703867963],[127.06734562606292,37.69242344556907],[127.06702934071447,37.692186809994666],[127.06631155689213,37.69151168676506],[127.06593936975659,37.691159910746194],[127.065811699263,37.69103523870787],[127.06578482507548,37.69089558707273],[127.06574496058188,37.69069033313984],[127.06558335239693,37.690450792594405],[127.06545740387918,37.69026670465714],[127.06522106517598,37.69006409219909],[127.06462472713213,37.68986251912017],[127.06456518273808,37.6898431218788],[127.06431541611963,37.6898871838215],[127.06364592179627,37.689696626945256],[127.06342203583294,37.689546942327304],[127.06319744140295,37.689396412897636],[127.0630468075142,37.68934411746021],[127.06242458531949,37.68953535880526],[127.0623240952282,37.68949007591192],[127.06216015654884,37.689416104180246],[127.06207005196634,37.68928859267234],[127.06190556588035,37.68919434670288],[127.06166923747898,37.68898834805241],[127.06049492876332,37.68890644280957],[127.06048926222682,37.68890982470104],[127.0599204458556,37.68920493094603],[127.05988697515292,37.689221842832296],[127.05895787745584,37.68916204463104],[127.05870339191789,37.68929057270556],[127.05838738490586,37.689361686771655],[127.05814698865467,37.689383204236215],[127.05793446862627,37.68948495963203],[127.05782271831573,37.68953851489967],[127.05766138041999,37.68961687347591],[127.05693512852645,37.68978532745334],[127.05644904262324,37.68962477206897],[127.05552545210219,37.68958859742862],[127.05551836548624,37.689588600711424],[127.05549143531343,37.689587205254625],[127.05501449235572,37.68956855887025],[127.05493086765314,37.689564936606175],[127.05473771202907,37.68950223136443],[127.05471360453919,37.68948422088946],[127.05452943442998,37.68935167796894],[127.05448068958401,37.689317628268086],[127.05423359445489,37.689139778170905],[127.05410313431078,37.689045787503645],[127.05406573318271,37.689018490565935],[127.0537938251288,37.688823755583776],[127.0537578423332,37.688797584253706],[127.05365202205282,37.688721885101394],[127.05346272991474,37.68860623792813],[127.05324295270725,37.6884711745739],[127.05305153352514,37.6883521486514],[127.05304462103427,37.68834764633767],[127.05297265271366,37.68828995307798],[127.052910433931,37.688240139872875],[127.05276791668126,37.68812700520413],[127.05252808462326,37.68793675852941],[127.05250131821627,37.6879150881472],[127.05249493650312,37.687909459225814],[127.05230895830431,37.68771271204976],[127.05215684296573,37.68755114807301],[127.05202991654497,37.687435471448644],[127.05190653545449,37.687322327423274],[127.05186968694146,37.687323469700225],[127.05162432261245,37.68732695453587],[127.05129463217709,37.68733357237414],[127.05127904209292,37.68733357903613],[127.05088479710486,37.68723857084347],[127.05055428453994,37.68760589827422],[127.05053057034077,37.687643922329734],[127.05049411422344,37.68770250749719],[127.05045907440037,37.687759684129006],[127.05025007371977,37.688101616828945],[127.0501694859406,37.68840097611424],[127.0501601201654,37.688437022994144],[127.05011211725015,37.68898557191217],[127.05011989312945,37.68922435329366],[127.05012586632238,37.68941611061749],[127.05016891482236,37.68967993836723],[127.05020912374731,37.68993588287994],[127.05022958218053,37.69006315101487],[127.05023507347684,37.69032924710277],[127.0502031628293,37.69056579233843],[127.0501734685234,37.69067139934108],[127.05009534016936,37.690943725204946],[127.05002940861456,37.69117465284799],[127.05001703351851,37.69121520632229],[127.04960247973402,37.692603876443435],[127.04960035808321,37.69261063537127],[127.04947880192528,37.6931296475306],[127.04943121704738,37.69324455399063],[127.04922761077556,37.69373938323363],[127.04908189294939,37.69416379209157],[127.04831274981963,37.69413143998715],[127.04823875615033,37.693956605178364],[127.0478594767645,37.69348059589155],[127.04773866613074,37.69351640529709],[127.04765275228377,37.69354178208508],[127.04754463594816,37.69347846818339],[127.04750156681624,37.69345342411008],[127.0473497706046,37.69323750797259],[127.04717542603788,37.69322912896489],[127.0470554201833,37.693134000120466],[127.0469362865749,37.693016343974826],[127.04685935830562,37.692959775308466],[127.04677093938994,37.692944604125906],[127.04661288515177,37.69291932281907],[127.04646083906007,37.692868133115645],[127.0464190177436,37.69285435158081],[127.04624161816315,37.69277360490478],[127.04602168657166,37.692674852774545],[127.04587302246246,37.69264815895341],[127.04585034231644,37.69264478857647],[127.04578655318608,37.69263326787366],[127.04572506731972,37.69262174626068],[127.04558740721977,37.6926268670547],[127.04545134098076,37.692630860743876],[127.04519303998869,37.69265911661062],[127.04512013255656,37.69310517536178],[127.04476921349047,37.69321090099924],[127.04414637994842,37.69340120127604],[127.04411290034204,37.693412195383885],[127.04384454365518,37.69382819512374],[127.04383958468956,37.69383157595501],[127.04368066940904,37.693851063118686],[127.04346913739494,37.69387845346934],[127.04310703173886,37.693951514278055],[127.04298078146242,37.694086157235915],[127.04308186279452,37.694246624799256],[127.04315524471554,37.69430094450565],[127.04322525910429,37.69435301269161],[127.04331799923987,37.69448757718289],[127.04331734251146,37.69457881108649],[127.04332018504957,37.69459232616253],[127.0433200149317,37.694604715980894],[127.04331724875887,37.69472523552162],[127.04331415068044,37.694885177132015],[127.04330348074903,37.69512734438853],[127.04329770521578,37.69525265195152],[127.04324531327384,37.69534587553334],[127.04323026841828,37.69537291312988],[127.04312080201919,37.69542645359814],[127.04303645749098,37.69541381243151],[127.04302457946804,37.69540142692054],[127.04296040605377,37.69534034580996],[127.04291591868069,37.69531304789279],[127.04289323213825,37.69529953987828],[127.04240453158738,37.69522650073593],[127.04228104638368,37.69524174975149],[127.04227537728543,37.69524287808256],[127.04224490439378,37.695246267797],[127.04212675944183,37.69530656843547],[127.04206035451125,37.69537389053703],[127.0419406476575,37.69549416921259],[127.04193692859575,37.69549726794596],[127.04183030416193,37.695565730249534],[127.04168413742605,37.69557760748723],[127.04163664263936,37.695558194518455],[127.04154129770511,37.69551739754838],[127.04112318648406,37.6952497532635],[127.04090413222902,37.695136067307125],[127.04082332835259,37.695116665306585],[127.04078735627145,37.695107666750324],[127.04072639886073,37.69509276333306],[127.04069804593034,37.69508460693162],[127.04066544087276,37.695076733542976],[127.04065002393827,37.69507223337594],[127.04060536820255,37.695059577081686],[127.04053962465134,37.695040169813566],[127.04049087887628,37.69499935631368],[127.04037513455712,37.69491097731639],[127.04033986119782,37.69488283058359],[127.04033560713513,37.69487945298204],[127.04018917501661,37.69472209564167],[127.04015602438459,37.69468719009622],[127.04015318776189,37.69468381201602],[127.04011595956028,37.69464412086495],[127.03996226233517,37.69448338662786],[127.03995747559941,37.69447775650574],[127.03992006703372,37.69443158888693],[127.03985961299864,37.694361494114176],[127.0398307194874,37.69433531621582],[127.0398004075532,37.69430716768043],[127.03967866811757,37.69427060168211],[127.03959061296833,37.69427372805135],[127.03958565187763,37.6942734480939],[127.03942619674024,37.69428082152806],[127.03942052708896,37.694280823380616],[127.03927294043056,37.69428368736268],[127.0392401289698,37.69421808863686],[127.03919863592829,37.69415249272163],[127.03916069010054,37.69409393527542],[127.03904811484854,37.693960500265284],[127.03899315676779,37.6938949086309],[127.03895947021172,37.693849584256256],[127.03893553482116,37.693816928070625],[127.03877955877574,37.69369589655052],[127.03865831294989,37.69358161175456],[127.03854257300911,37.69349323093502],[127.0384910008028,37.69346480725944],[127.03848196262074,37.693460304773666],[127.03841391549416,37.69343639168187],[127.03815965303882,37.693402682056785],[127.03796120987168,37.6933872574042],[127.0376552105003,37.6933487759905],[127.03747323317585,37.693309692203854],[127.03725898613429,37.69322105905139],[127.037194653684,37.693183628007134],[127.03715601041787,37.693143936346665],[127.03714324731719,37.69313042416857],[127.037083829339,37.6929972524928],[127.03704997387713,37.69296572530553],[127.0369907715907,37.69291139744671],[127.03690747424133,37.69285792167546],[127.0368473944366,37.692820489140466],[127.0366662922463,37.692755497973515],[127.03656510961405,37.692720330439954],[127.03643149733033,37.692670248566465],[127.03615504806253,37.69254418125738],[127.03600175470578,37.692461159275815],[127.03597127576789,37.692449904926434],[127.0359422140845,37.69243836856245],[127.03591670181376,37.69243950248458],[127.03590748885787,37.69243950522055],[127.03587914328577,37.69244373741631],[127.03583079111819,37.69247754201182],[127.03578706109084,37.6925448538936],[127.03574633553889,37.69259639608289],[127.0357114435959,37.69262005957184],[127.03566591745465,37.692635560207485],[127.03559788720787,37.692644309399014],[127.03553127013558,37.69264404740054],[127.03546252280803,37.69263477525327],[127.03527007751414,37.69255739550287],[127.03514426094168,37.69250505721246],[127.03495270165924,37.69242655034295],[127.0347349064782,37.69231538677486],[127.03453767149442,37.69222111206863],[127.03450169737638,37.692202819268886],[127.0344148633581,37.69215863505999],[127.03432272125156,37.692129939495075],[127.03426619546818,37.692111934033136],[127.03421304037867,37.69210378308476],[127.03417973000953,37.692099005538516],[127.03406846823844,37.6921032606757],[127.03405358571277,37.692102983276236],[127.0340287822136,37.692104116590684],[127.03398041728974,37.692110606638174],[127.03387270340848,37.69212499767367],[127.03376622558403,37.6921300959442],[127.03375630398024,37.69213009870966],[127.03371732513398,37.69212757529657],[127.03358993017764,37.6921078997031],[127.03334575663544,37.69203616284711],[127.03311504990745,37.691967519246305],[127.03304063257072,37.69195486820886],[127.03293662563392,37.691937438214836],[127.03267440480396,37.69191948770507],[127.03260690397316,37.691922603319],[127.03257218181035,37.691930497046876],[127.03254933584574,37.69195190368211],[127.0325286215439,37.691986544260594],[127.03250244228586,37.69208566938439],[127.03247626343594,37.69218592084266],[127.03242199609475,37.69247962904848],[127.03241052947249,37.69259677168058],[127.0323914405686,37.692704905609894],[127.03236843332878,37.692764607876654],[127.032344172044,37.69279164655666],[127.03228997311183,37.6928296750403],[127.03222815188259,37.69285869478914],[127.03221681516472,37.69286432951076],[127.03220476927847,37.69286883807768],[127.03216703646011,37.692880956266706],[127.0320982964114,37.69288857728552],[127.0319032371642,37.692909184483135],[127.03173439772297,37.69292556072109],[127.03158735378936,37.69294981543935],[127.0314773445744,37.6929875764773],[127.03141180594439,37.69302560749679],[127.0313471526554,37.69306251190909],[127.03128657751797,37.69310729962784],[127.03125080860976,37.69315686788444],[127.03116568078367,37.69338525557993],[127.03111331701706,37.69358209724287],[127.0310692556843,37.69371839588202],[127.03106271525877,37.69375556683378],[127.03104786810633,37.693843425288094],[127.03103903349559,37.69390312365906],[127.03103373509316,37.6939447996574],[127.03100647768946,37.69401323188073],[127.03093865235256,37.69409519054106],[127.03083167043548,37.69417603276773],[127.03075622074495,37.694244477156495],[127.03070593406513,37.69432305221184],[127.03065053491916,37.69446611159339],[127.0306005078417,37.694751933387934],[127.030597168874,37.69482064106448],[127.03059558505633,37.69484767366076],[127.03058921428615,37.69486682307169],[127.03056815568975,37.69493102984112],[127.03054372528666,37.69498172135569],[127.03036520904311,37.695182536483046],[127.03025097836873,37.69530843363871],[127.03017360681697,37.69545009031426],[127.03016263409171,37.69548163059865],[127.03010936085653,37.69562891295074],[127.03003218924549,37.69583026556908],[127.02996581787856,37.69601274925047],[127.02989343683323,37.69623324838575],[127.02983574218307,37.69640418484943],[127.02980355897279,37.69656863856574],[127.02980522621714,37.69675561079743],[127.02983348371924,37.696975521978615],[127.02983285817078,37.69718952694633],[127.02983219321678,37.69730216121915],[127.02981455578023,37.69751053864364],[127.02981142432114,37.69765949801308],[127.02980984103343,37.69768878326774],[127.02980296931733,37.69778790296094],[127.02977573472143,37.69792166262652],[127.02974121937905,37.698014031034546],[127.02973767916006,37.69802304262823],[127.0296693429052,37.6981714547433],[127.02958332985827,37.69842912618298],[127.02949576653714,37.69880393736915],[127.02940708484945,37.69903682980362],[127.02938708028748,37.69908301461031],[127.02932724235058,37.69921818994332],[127.02932440937991,37.699223540744875],[127.02921054869094,37.69941138545654],[127.02910164830065,37.699598102525165],[127.02901133228987,37.69973187704797],[127.0289720186101,37.69979130088415],[127.02894137581968,37.699820593033195],[127.02884785322813,37.69991015932058],[127.02876230365565,37.69999887889281],[127.02870792761317,37.700056053516356],[127.02851630272036,37.70031234103708],[127.02831955112799,37.70060439073775],[127.02822798470346,37.70071789080121],[127.02818866626447,37.70076745888886],[127.02813463742206,37.70080773805411],[127.02810257089124,37.70082210629867],[127.02809335854366,37.70082661378588],[127.0280621755942,37.7008345053582],[127.02805207604871,37.70083563402535],[127.0279656080884,37.700840722442365],[127.02789898534118,37.70084496149699],[127.0278706349905,37.70084609432735],[127.02767041919834,37.700877959083215],[127.02766404067981,37.70087908687202],[127.0275972427089,37.70088895749796],[127.02736513405051,37.700926460656106],[127.02732402730457,37.700931819994814],[127.02727158063418,37.70093830819711],[127.02724464658193,37.7009360615389],[127.02721363063337,37.7009155127543],[127.02717339205049,37.700870468113564],[127.02714679920237,37.70083077053815],[127.0271377524723,37.70080261404163],[127.02711061103392,37.70071448394095],[127.027061498777,37.70062889297691],[127.02704891054606,37.700607213716204],[127.02699341864924,37.700519089871186],[127.02694556197378,37.70047629951669],[127.02689540648961,37.70044674415021],[127.02686988573517,37.70043182576396],[127.02678712556474,37.70039777216789],[127.02659467465216,37.70033614713216],[127.02645751080593,37.70028380211693],[127.02642915678314,37.700273671196356],[127.02639867560943,37.70026100646292],[127.02625087829345,37.70020190546309],[127.02606852171759,37.70012112960573],[127.02599231450762,37.70007581064496],[127.02598380671033,37.70006792807174],[127.02594357264607,37.70003273848376],[127.02583509802226,37.69993082765715],[127.02582729939562,37.69992407126301],[127.02575534434055,37.69987649856707],[127.02561658946694,37.699830910948556],[127.02550122641301,37.699793202671096],[127.0254085467189,37.69976450029143],[127.0251728613996,37.699693871184444],[127.02507238598612,37.69966629648574],[127.02500292435076,37.69965589205863],[127.02488101966506,37.699660985455374],[127.02480288048332,37.6996652251039],[127.02465829803572,37.699678207251374],[127.02453621967743,37.6996945637331],[127.02447296828477,37.699711189923775],[127.0244444443307,37.69972245903104],[127.02415087815146,37.69984078306886],[127.02368473930841,37.6999965906828],[127.02354565577453,37.70003209721402],[127.02348594597157,37.70004309049103],[127.02344129630862,37.70005070183701],[127.02335748654363,37.70005494161183],[127.02330716303759,37.70005016424155],[127.02325825748376,37.70004679450657],[127.0229997243878,37.70000516866125],[127.02258719175683,37.699889513789714],[127.02234371431115,37.69982563850665],[127.02225936791383,37.69981157456369],[127.02219558273167,37.69982256792619],[127.02211214133698,37.699875239395986],[127.02196120371687,37.69997494760605],[127.02179608824517,37.70006677375162],[127.02167100801421,37.700124802399415],[127.02154946796377,37.70017044054773],[127.02143093565661,37.700200309278884],[127.02132710831192,37.70022369888505],[127.02124313674366,37.70028538055265],[127.02116466317362,37.70036620900354],[127.02109486355407,37.700416624721576],[127.02094108226758,37.70049352370926],[127.02069871175664,37.700596343240875],[127.02038866027422,37.700725924068905],[127.02013035542542,37.70088478049839],[127.02007047391525,37.70092167790216],[127.01999145844302,37.70096984178029],[127.01989809745193,37.70104616642816],[127.01981537120845,37.701135723794295],[127.01978242218112,37.70117064562916],[127.01967312640676,37.70129878430425],[127.01943522814709,37.701589417759045],[127.01940599337397,37.70159843307537],[127.01937551655728,37.701600690537425],[127.01935070959946,37.70160153917876],[127.01914374121377,37.70157819983694],[127.01910546613883,37.70157341880925],[127.01897380785982,37.70156048615959],[127.018745576438,37.70153714937758],[127.0183835594383,37.70149524746134],[127.01817021234898,37.701470499431046],[127.01815178367738,37.701468249449476],[127.01801303411551,37.70143842165993],[127.01788934251992,37.70139282277261],[127.01770540040555,37.70132555031057],[127.01742452635483,37.70122421939607],[127.01727656194893,37.70118735240304],[127.01721277096196,37.70118060320794],[127.0170446177473,37.7011944240331],[127.01674074335267,37.70124965594792],[127.01656125308236,37.70128037271232],[127.01641081867751,37.701293345522195],[127.01626622875119,37.701292519708915],[127.01620173009265,37.70129112017595],[127.01602453368332,37.701275937456124],[127.0159827123583,37.70125763978537],[127.01595099203432,37.70124412775662],[127.01593816529748,37.70178026738088],[127.01586080242825,37.70213394805798],[127.01581262624006,37.70223842221601],[127.01567748407453,37.70253072450719],[127.01556628558677,37.702940444601474],[127.0155190296987,37.70322428815566],[127.01551761344322,37.70323104637124],[127.01557330563554,37.70349488458428],[127.01562345645156,37.70351318135276],[127.0156344574888,37.70358751841244],[127.01570694776461,37.70366776104441],[127.01580991741274,37.703752786722745],[127.01586202240921,37.70379473627903],[127.01603482326944,37.70394986752781],[127.01642893820636,37.70405963438559],[127.01646438078001,37.704072019447835],[127.01666250456856,37.70413929191786],[127.01679277569423,37.70427527995133],[127.01680695461786,37.70428879411564],[127.01682349477163,37.704571503159116],[127.0171857929307,37.70502396061438],[127.01757998747615,37.70545585671434],[127.0177409159926,37.70557944959163],[127.01789067110616,37.705658835032324],[127.0181189164623,37.70568893148646],[127.01877973393947,37.70579104839284],[127.018957679726,37.705926745168476],[127.0190590654948,37.70602866331065],[127.0191147213184,37.70608412693916],[127.01919267690002,37.706745839243396],[127.01925352180794,37.70700179038489],[127.01931450809798,37.70711131736311],[127.01951056938799,37.7073917450281],[127.01949925117758,37.70748410662692],[127.01949358164582,37.70748861287818],[127.01944361788473,37.70752438201863],[127.01934973576309,37.70767842363071],[127.01931645004827,37.70779753919826],[127.01934412094153,37.70790369233047],[127.0196332388946,37.708260977791454],[127.01961625224767,37.70836235100076],[127.0195439769716,37.70846795673656],[127.01917616033681,37.70876170723136],[127.01895983815528,37.708978279233364],[127.01851001478802,37.709472246886314],[127.01821554140196,37.70970544264592],[127.01753764444169,37.71024787238231],[127.0170856518822,37.71062469559328],[127.01700378629059,37.71066159439724],[127.01699669839685,37.710664974381324],[127.01667878304877,37.7107097893369],[127.01659070938027,37.71072190923663],[127.01647411166364,37.71077092043123],[127.01639671965764,37.71101731718487],[127.01640269440257,37.71162469439997],[127.01636338059475,37.711762112845975],[127.01616425415169,37.712087932167826],[127.01597502270567,37.71227774452758],[127.01555718413641,37.71250588073528],[127.0150668674661,37.712774290779564],[127.01473942191035,37.71308717011027],[127.01384496101048,37.71396468909313],[127.01362824988804,37.71415872441019],[127.01348845803848,37.714382317497765],[127.01321055142132,37.71534029713126],[127.01319964422669,37.71582912879955],[127.01301061935189,37.71630389965231],[127.012877395081,37.716626608953504],[127.01286039732473,37.716727981047875],[127.0128900004238,37.71676317608258],[127.0131326770659,37.717058251525806],[127.01367952415404,37.71758109556489],[127.01377417824024,37.71765119975253],[127.01391295889773,37.717695674826025],[127.0142243695617,37.71777025985928],[127.01426106403838,37.71781108542725],[127.01433498435316,37.71789020220883],[127.01438003258632,37.71806168189692],[127.01435738505751,37.71827343586639],[127.01430779449169,37.71846688991574],[127.0143184493303,37.7185820566673],[127.01435730756724,37.71882449628049],[127.01430202621495,37.71891320162031],[127.01425174843736,37.71923083435085],[127.01424487221898,37.719431323099535],[127.01412258373176,37.719457805804396],[127.01370644747853,37.7195462692184],[127.01345041547577,37.71999148140183],[127.01321191027247,37.72033532086177],[127.01296221900327,37.72056962472482],[127.01261646818944,37.72084195150403],[127.01253849847159,37.72094304794389],[127.01252206766374,37.721278979448066],[127.01236064399592,37.72155663721342],[127.01216110995128,37.721820500772864],[127.01195522411378,37.72228851304537],[127.01164968199758,37.72246396820821],[127.01160006899255,37.72256984833788],[127.01162773563793,37.72268473212211],[127.01189472086203,37.723058932718324],[127.01193070664405,37.723092719439826],[127.0120055149899,37.72316536109469],[127.01244513640286,37.72350519076007],[127.01261124725814,37.7237028463474],[127.01273376197744,37.72393683041863],[127.01279513193134,37.72420179478279],[127.01274501632925,37.72448760758055],[127.01264546048579,37.72485367671334],[127.01260048270488,37.72513047821931],[127.01262284060002,37.72528506558331],[127.01273420527224,37.72560774963814],[127.01277890845196,37.725832167524864],[127.01273461931963,37.72598169304075],[127.01263431769257,37.72612784512235],[127.01232150204794,37.726355395657606],[127.01128812989079,37.72644785084194],[127.0109928296744,37.72647490856968],[127.01059333401925,37.72673005712218],[127.01007990661451,37.72735465126207],[127.00986356817498,37.72810396249081],[127.00883035629326,37.72829354250588],[127.00916418422868,37.728759259137234],[127.00938081456837,37.72893579676082],[127.00965878286534,37.72915569333386],[127.00978075227385,37.72927901788413],[127.00989192256992,37.729512723958564],[127.00997013011715,37.72980472029423],[127.00997549408227,37.73018232364815],[127.00990354486856,37.730340860797554],[127.00971461076108,37.73057458955947],[127.00948686654718,37.73091053572085],[127.00934241652598,37.73108681754385],[127.00865184615866,37.731578510094124],[127.00856838409918,37.73186882828893],[127.00845176951003,37.73212986384535],[127.00805755658332,37.73242442492786],[127.00776298948045,37.732981133226204],[127.00754603133714,37.733192051770196],[127.00739890929466,37.73332327792534],[127.0072852816457,37.73334862666441],[127.00685487839768,37.73344269813479],[127.00638015060272,37.733456518792366],[127.00623744858369,37.733460467521226],[127.00589870473051,37.73374291069742],[127.00556564977,37.73432411277606],[127.0057876234048,37.73476562669524],[127.00579830835397,37.735501403869016],[127.00521602153832,37.73654919862326],[127.00520680408243,37.736565812382096],[127.00490368924787,37.73711125012353],[127.00475230173075,37.73727401037175],[127.00442469946982,37.73747197375657],[127.00407458809363,37.73783776051069],[127.00390210342515,37.738063594882334],[127.00353533194028,37.73870307940056],[127.0033688701591,37.738896249161506],[127.00325399020609,37.73887654069034],[127.00321215120394,37.73886865718958],[127.00312865962258,37.73915559217624],[127.00303435049364,37.7393535469735],[127.00299021985282,37.73981647065045],[127.00296221618288,37.740081159395835],[127.00280089240049,37.740323886867316],[127.00269009154823,37.74045172739462],[127.00236708029306,37.7407017777784],[127.00230042204615,37.74079385630314],[127.00230024727942,37.74092676357612],[127.00285022155056,37.7419759346166],[127.00310216605064,37.74248165346992],[127.00326936039673,37.742747183093606],[127.00354381278068,37.742865442140285],[127.00364699859372,37.74290992990277],[127.00383067484206,37.7429411811885],[127.00409165006826,37.74295469037854],[127.00433596207559,37.74301550543968],[127.00450262302029,37.74313432851633],[127.00467531993996,37.74339985594757],[127.00467426391833,37.74355191084251],[127.00461328030599,37.743662293347725],[127.0042792713293,37.74395712088774],[127.00431296957608,37.74422208956105],[127.00425730154714,37.74428375784982],[127.00401830611712,37.74426602470287],[127.00381210969296,37.74422773470095],[127.00318997574426,37.74411145468349],[127.00300115646202,37.744120750456545],[127.00258984299039,37.74463633563804],[127.00253399826614,37.74480387832492],[127.00251751514372,37.74505505059562],[127.00258914788526,37.745252439265165],[127.00257266934305,37.74570212752145],[127.00258366561066,37.74586544548422],[127.00291168642406,37.746478727974775],[127.00292818002572,37.74664683269921],[127.00284539902076,37.74735952044066],[127.00281225919379,37.74797252690679],[127.00281812087877,37.74838251144299],[127.00287913355992,37.749114062606935],[127.00294563623486,37.74956403077429],[127.0030850153291,37.750062711353266],[127.00303502153795,37.75032261315675],[127.00303485694464,37.7507632901457],[127.00297883241666,37.750970254453264],[127.00287759236217,37.75115469288125],[127.00251641233598,37.7513751776749],[127.00220523305276,37.75162747965006],[127.00344151850919,37.75329583655771],[127.00339435711884,37.75344423160119],[127.00307273245126,37.754448079879175],[127.00301032135954,37.75464265455862],[127.00259558228495,37.755231450356625],[127.002595233999,37.755508527549665],[127.00228049551042,37.755990600905186],[127.00246262998931,37.75707975954242],[127.00181575224252,37.75776682747764],[127.00149993559005,37.75830183605814],[127.00138379106305,37.75922063979737],[127.00147353049366,37.76046157255993],[127.00216215725997,37.76264833460476],[127.00236628169299,37.7629791912545],[127.00237834122181,37.76299833868866],[127.00300080815133,37.76307097737817],[127.00439294407056,37.76333140770011],[127.00446157572897,37.76334407683613],[127.00480118754425,37.76340742203408],[127.00493543887424,37.76347893936173],[127.00520252555249,37.76365604504312],[127.00552476861012,37.76385905351134],[127.00568047925904,37.7639204321834],[127.0067243359564,37.764150156121886],[127.0079021251656,37.76471410082966],[127.008069015768,37.764811518174604],[127.00870220044573,37.765419413533955],[127.01001305724185,37.766160724784946],[127.01124657135162,37.766583840563655],[127.01333550439757,37.76728083540388],[127.01363523900788,37.767350917272516],[127.0147018891673,37.767686442749074],[127.01546876790104,37.767739287779555],[127.01580171889317,37.768047015147395],[127.0162240406353,37.768267439578814],[127.01739096170482,37.76878820844326],[127.01881299427203,37.76881418787214],[127.02027961298535,37.76842593588298],[127.02039204274593,37.76837917473948],[127.02039913598854,37.76837579458289],[127.02191266525267,37.767737188153845],[127.0228683355099,37.767472889965944],[127.02305706589362,37.76756943721798],[127.02325695948517,37.76763134747232],[127.02342366730018,37.767622868257824],[127.02364568154566,37.76752567983682],[127.02404586719129,37.767217551256685],[127.02524511387959,37.76722575698396],[127.0255627317785,37.76717500616946],[127.02557904735765,37.767173031679064],[127.02726706350079,37.766660186819685],[127.02760065733708,37.76666039326705],[127.02810053697905,37.766959882111486],[127.02917834002513,37.767551231973044],[127.02983418127553,37.767541498940126],[127.03108922811344,37.7673742059426],[127.03113321203925,37.76737644731908],[127.03127863869607,37.76737387567276],[127.03138789710394,37.76739890824075],[127.03163372782913,37.76745290809727],[127.03202312074563,37.767709045416645],[127.03434628529676,37.76857455468754],[127.03469200775021,37.76831680862242],[127.03470991425709,37.768303287555014],[127.03474909605943,37.76827427337095],[127.03518399340315,37.76795032845121],[127.03573937966014,37.76777783740748],[127.03576349593463,37.76777022756234],[127.03702924356212,37.76738070001736],[127.03699159632008,37.767280186809366],[127.03779875410392,37.76699384954723],[127.03804547545218,37.76704896208113],[127.0389510197585,37.7670388177429],[127.0390271019073,37.76703682207374],[127.03995594904282,37.76682307872835],[127.04000773880678,37.766830101098265],[127.04001749837089,37.766840234808456],[127.0401608042505,37.76685426624049],[127.04017357401617,37.76685538831245],[127.04091546677883,37.7669283499886],[127.04122389513275,37.766959782012734],[127.04127710329774,37.76696567701145],[127.04184392058266,37.766656867594726],[127.0428322732644,37.76600381300126],[127.04359857155302,37.76535111231124],[127.04378082826753,37.76525587140262],[127.04391255669574,37.76518768054072],[127.04407619805522,37.76510399082988],[127.04397081679225,37.7641210264734],[127.04533108523701,37.76390314003098],[127.04550537133271,37.76383380499041],[127.04556512165108,37.76381041104337],[127.0456156521695,37.7637903995502],[127.04608584989364,37.76360296808609],[127.04658442540351,37.76342453436892],[127.0464518009615,37.763179327699454],[127.04729626071811,37.762835749612556],[127.0480297928773,37.7626411668296],[127.04942893544066,37.76199662052472],[127.0509724585526,37.76116755994106],[127.05287096409461,37.7615972770762],[127.05341471781391,37.76190227107707],[127.05418235345816,37.76206637045351],[127.0543270540688,37.762549218314774],[127.05469506996421,37.76260001724577],[127.05547806992105,37.76242169727386],[127.0560038868003,37.762191681528115],[127.0565816435258,37.76193911232384],[127.06035589399482,37.76234302830596],[127.06078485962307,37.76254188965394],[127.06227596615786,37.7632312801895],[127.06440366895681,37.76381387240155],[127.06550520757825,37.76388901919635],[127.06551088351591,37.763890142412556],[127.06571553602909,37.7640924875173],[127.06638689068944,37.76421882824996],[127.06704355887844,37.76477796496681],[127.0677471929879,37.76509491082318],[127.06991610320028,37.765069162837555],[127.07006649038377,37.76506738516934],[127.07056327658755,37.76605741630987],[127.07197174531461,37.76732679123374],[127.07239676083626,37.76759741588553],[127.07240101943546,37.76759966595649],[127.07416446709479,37.76872181267934],[127.07517174880972,37.768809880358624],[127.07605110693973,37.768669939818025],[127.0765155095226,37.76875834099226],[127.07674518738334,37.768936153081334],[127.07674944734133,37.768939529320875],[127.07769976110039,37.76967187114811],[127.07816427737956,37.76986163516381],[127.07843915430125,37.76983667541097],[127.079251366626,37.769759547909516],[127.08165170913412,37.77090058604032],[127.08310951663056,37.7729058472064],[127.08346159804672,37.7729182722099],[127.0838451160937,37.772969250714866],[127.0847900232888,37.773832192457114],[127.08535049606391,37.7739841277105],[127.0865495410704,37.77356342415272],[127.08726986608494,37.77421053590933],[127.08808568168372,37.7742991964371],[127.08995851407218,37.7754908565783],[127.0900599704091,37.77549134301459],[127.09034252087652,37.77549112887468],[127.09109540316105,37.776176487365795],[127.09227944202762,37.7765312123939],[127.09283996137958,37.77683516585644],[127.09376731582917,37.77687217051454],[127.09482407199678,37.77740521117407],[127.09528756697789,37.777277284442214],[127.09568791821222,37.77742958015579],[127.09738360701728,37.77755491545785],[127.09794301280958,37.777120820773014],[127.09802292775714,37.77705908860902],[127.09874352690814,37.7779471631722],[127.09896618977972,37.77798949684508],[127.09898677022777,37.77799314027182],[127.0990795605759,37.77801023945234],[127.09957610346783,37.77832744838841],[127.09973803270678,37.77831548625349],[127.10040773855201,37.77826367478251],[127.1020725342306,37.77899831056238],[127.10357551644465,37.77890887550904],[127.10391244235154,37.77922536034908],[127.10410505532052,37.779720774782895],[127.1044568697009,37.779897580693586]]]}}]}